{
"type": "FeatureCollection",
"name": "zona_bancos_forrajes",
"crs": { "type": "name", "properties": { "name": "urn:ogc:def:crs:OGC:1.3:CRS84" } },
"xy_coordinate_resolution": 1e-07,
"features": [
{ "type": "Feature", "properties": { "tipo": "Bancos de Forraje" }, "geometry": { "type": "Polygon", "coordinates": [ [ [ -85.5894944, 10.2948605 ], [ -85.589163, 10.2947966 ], [ -85.5889292, 10.2947534 ], [ -85.5888216, 10.2947296 ], [ -85.5886281, 10.294713 ], [ -85.588444, 10.2946717 ], [ -85.588337, 10.2946712 ], [ -85.588102, 10.2946414 ], [ -85.5880659, 10.2939987 ], [ -85.5880466, 10.2937947 ], [ -85.5881959, 10.2938191 ], [ -85.5886201, 10.2939018 ], [ -85.5889098, 10.2939432 ], [ -85.5891655, 10.2939917 ], [ -85.5894955, 10.2940516 ], [ -85.5895647, 10.2940632 ], [ -85.5896071, 10.2940715 ], [ -85.5894944, 10.2948605 ] ] ] } },
{ "type": "Feature", "properties": { "tipo": "Bancos de Forraje" }, "geometry": { "type": "Polygon", "coordinates": [ [ [ -85.5893531, 10.294885 ], [ -85.5892654, 10.2956899 ], [ -85.5887794, 10.2956012 ], [ -85.5880972, 10.2955047 ], [ -85.5881327, 10.295229 ], [ -85.5882202, 10.2951949 ], [ -85.5883553, 10.2951935 ], [ -85.5887153, 10.2952517 ], [ -85.5888358, 10.2952688 ], [ -85.58885, 10.2952629 ], [ -85.5888848, 10.295267 ], [ -85.5889175, 10.2952764 ], [ -85.5889215, 10.2952316 ], [ -85.5888871, 10.2950416 ], [ -85.5889119, 10.2948185 ], [ -85.5893531, 10.294885 ] ] ] } }
]
}
