{
"type": "FeatureCollection",
"name": "finca",
"crs": { "type": "name", "properties": { "name": "urn:ogc:def:crs:OGC:1.3:CRS84" } },
"xy_coordinate_resolution": 1e-07,
"features": [
{ "type": "Feature", "properties": { }, "geometry": { "type": "Polygon", "coordinates": [ [ [ -85.5968267, 10.2972302 ], [ -85.5968485, 10.2965774 ], [ -85.5968712, 10.2962028 ], [ -85.5969685, 10.2953793 ], [ -85.5959783, 10.2952256 ], [ -85.5957528, 10.2951698 ], [ -85.595399, 10.2951263 ], [ -85.5950999, 10.2950678 ], [ -85.5948578, 10.2950285 ], [ -85.5945185, 10.2949685 ], [ -85.5943136, 10.2949168 ], [ -85.5938408, 10.2948299 ], [ -85.5936711, 10.294803 ], [ -85.593547, 10.294774 ], [ -85.5934332, 10.2947554 ], [ -85.5928403, 10.2946369 ], [ -85.5924523, 10.2945707 ], [ -85.5922164, 10.2945293 ], [ -85.5917312, 10.2944569 ], [ -85.5913753, 10.2943819 ], [ -85.5908756, 10.2942991 ], [ -85.5906231, 10.2942453 ], [ -85.5903955, 10.2942019 ], [ -85.5899165, 10.2941315 ], [ -85.5895647, 10.2940632 ], [ -85.5893681, 10.2940301 ], [ -85.5889098, 10.2939432 ], [ -85.5886201, 10.2939018 ], [ -85.5881959, 10.2938191 ], [ -85.5879289, 10.2937756 ], [ -85.5877272, 10.2937466 ], [ -85.5877137, 10.2943594 ], [ -85.5877086, 10.2947458 ], [ -85.5877117, 10.2951829 ], [ -85.5877044, 10.2954491 ], [ -85.5887794, 10.2956012 ], [ -85.5902548, 10.2958705 ], [ -85.5919868, 10.2962403 ], [ -85.5968267, 10.2972302 ] ] ] } }
]
}
