{
"type": "FeatureCollection",
"name": "lineas_offset_10m_v4",
"crs": { "type": "name", "properties": { "name": "urn:ogc:def:crs:OGC:1.3:CRS84" } },
"xy_coordinate_resolution": 1e-07,
"features": [
{ "type": "Feature", "properties": { "offset_m": 10.0, "length_m": 215.39149812455881, "mean_slope_pct": 1.1825555175542832, "mean_twi": 6.1239052237329865, "mean_spi": 0.035661322687629865, "prioridad": "media", "tipo": "dibujo_offset_drenaje_10m_v4", "criterio": "lineas a distancia horizontal regular desde drenajes; estilo grafico tipo paper; revisar contra curvas de nivel y campo", "priority_rank": 1 }, "geometry": { "type": "LineString", "coordinates": [ [ -85.5918392, 10.2954261 ], [ -85.5919137, 10.2954412 ], [ -85.5919865, 10.2954633 ], [ -85.5920604, 10.2954807 ], [ -85.5921357, 10.2954886 ], [ -85.5922095, 10.2954735 ], [ -85.5922793, 10.2954985 ], [ -85.5923547, 10.2955035 ], [ -85.5924284, 10.2955217 ], [ -85.5924958, 10.2955558 ], [ -85.5925451, 10.2956121 ], [ -85.5925598, 10.2956847 ], [ -85.5925438, 10.2957582 ], [ -85.5925193, 10.2958296 ], [ -85.5925079, 10.295904 ], [ -85.5925128, 10.2959791 ], [ -85.5925353, 10.2960508 ], [ -85.5925952, 10.2960946 ], [ -85.5926694, 10.2961099 ], [ -85.5927451, 10.2961179 ], [ -85.5928212, 10.2961227 ], [ -85.5928969, 10.2961306 ], [ -85.5929703, 10.2961483 ], [ -85.5930282, 10.2961964 ], [ -85.5930747, 10.2962559 ], [ -85.593092, 10.2963271 ], [ -85.593062, 10.2963956 ] ] } },
{ "type": "Feature", "properties": { "offset_m": 10.0, "length_m": 214.10116388516391, "mean_slope_pct": 1.0958546534180642, "mean_twi": 6.9074277939886075, "mean_spi": 0.22839095975724968, "prioridad": "media", "tipo": "dibujo_offset_drenaje_10m_v4", "criterio": "lineas a distancia horizontal regular desde drenajes; estilo grafico tipo paper; revisar contra curvas de nivel y campo", "priority_rank": 1 }, "geometry": { "type": "LineString", "coordinates": [ [ -85.5917798, 10.295957 ], [ -85.591787, 10.2958822 ], [ -85.5918066, 10.29581 ], [ -85.5918083, 10.2957347 ], [ -85.5918026, 10.2956594 ], [ -85.5917481, 10.2956088 ], [ -85.5916751, 10.2955975 ], [ -85.5915994, 10.2955987 ], [ -85.5915315, 10.295625 ], [ -85.591473, 10.2956709 ], [ -85.5913976, 10.2956748 ], [ -85.5913239, 10.2956568 ], [ -85.5912506, 10.2956376 ], [ -85.5911749, 10.2956365 ], [ -85.5911023, 10.2956235 ], [ -85.5910711, 10.2955582 ], [ -85.5911105, 10.295498 ], [ -85.5911742, 10.2954564 ], [ -85.5912496, 10.295447 ], [ -85.5913233, 10.2954642 ], [ -85.5913983, 10.2954689 ], [ -85.5914614, 10.2954326 ], [ -85.5915359, 10.2954181 ], [ -85.5916117, 10.2954122 ], [ -85.5916879, 10.2954115 ], [ -85.5917637, 10.2954157 ], [ -85.5918392, 10.2954261 ] ] } },
{ "type": "Feature", "properties": { "offset_m": 10.0, "length_m": 208.66335229733295, "mean_slope_pct": 1.0119858917593956, "mean_twi": 6.468462306468747, "mean_spi": 0.18915536260690935, "prioridad": "media", "tipo": "dibujo_offset_drenaje_10m_v4", "criterio": "lineas a distancia horizontal regular desde drenajes; estilo grafico tipo paper; revisar contra curvas de nivel y campo", "priority_rank": 1 }, "geometry": { "type": "LineString", "coordinates": [ [ -85.5928522, 10.2963527 ], [ -85.5928401, 10.2963159 ], [ -85.5927649, 10.2963052 ], [ -85.5926889, 10.296299 ], [ -85.5926135, 10.2962885 ], [ -85.5925387, 10.2962744 ], [ -85.592467, 10.2962488 ], [ -85.5923995, 10.2962144 ], [ -85.5923574, 10.2961536 ], [ -85.5923387, 10.2960807 ], [ -85.5923304, 10.2960058 ], [ -85.5923255, 10.2959305 ], [ -85.5923252, 10.295855 ], [ -85.5923248, 10.2957795 ], [ -85.5923075, 10.2957061 ], [ -85.5922371, 10.2957034 ], [ -85.5921674, 10.2956788 ], [ -85.5920926, 10.29569 ], [ -85.5920183, 10.2956776 ], [ -85.5919838, 10.2957232 ], [ -85.5919917, 10.2957982 ], [ -85.5919866, 10.2958735 ], [ -85.5919691, 10.2959469 ], [ -85.5919432, 10.2960175 ], [ -85.5918794, 10.2960535 ], [ -85.5918142, 10.296022 ], [ -85.5917798, 10.295957 ] ] } },
{ "type": "Feature", "properties": { "offset_m": 10.0, "length_m": 190.84892267526584, "mean_slope_pct": 1.3839613108531288, "mean_twi": 5.9801394329760367, "mean_spi": 0.079230445053479634, "prioridad": "media", "tipo": "dibujo_offset_drenaje_10m_v4", "criterio": "lineas a distancia horizontal regular desde drenajes; estilo grafico tipo paper; revisar contra curvas de nivel y campo", "priority_rank": 1 }, "geometry": { "type": "LineString", "coordinates": [ [ -85.5950128, 10.295629 ], [ -85.5949445, 10.2955953 ], [ -85.5948853, 10.2955467 ], [ -85.5948279, 10.2954964 ], [ -85.5947794, 10.2954388 ], [ -85.5947901, 10.2953668 ], [ -85.5948529, 10.2953285 ], [ -85.5949276, 10.2953399 ], [ -85.5949897, 10.2953842 ], [ -85.5950461, 10.2954359 ], [ -85.5951115, 10.2954747 ], [ -85.5951861, 10.295471 ], [ -85.5952621, 10.29548 ], [ -85.5953326, 10.2955087 ], [ -85.595395, 10.2955526 ], [ -85.5954489, 10.2956062 ], [ -85.5954848, 10.2956699 ], [ -85.5955577, 10.295683 ], [ -85.5956286, 10.2957085 ], [ -85.5956989, 10.2957366 ], [ -85.5957722, 10.2957532 ], [ -85.5958369, 10.2957935 ], [ -85.595896, 10.2958421 ], [ -85.5959697, 10.2958599 ] ] } },
{ "type": "Feature", "properties": { "offset_m": 10.0, "length_m": 190.01387626362191, "mean_slope_pct": 1.3490640708933705, "mean_twi": 6.2717488356004507, "mean_spi": 0.25300452159829789, "prioridad": "media", "tipo": "dibujo_offset_drenaje_10m_v4", "criterio": "lineas a distancia horizontal regular desde drenajes; estilo grafico tipo paper; revisar contra curvas de nivel y campo", "priority_rank": 1 }, "geometry": { "type": "LineString", "coordinates": [ [ -85.5952836, 10.2961343 ], [ -85.595209, 10.2961208 ], [ -85.5951323, 10.2961248 ], [ -85.5950558, 10.2961279 ], [ -85.594984, 10.2961076 ], [ -85.5949096, 10.2960891 ], [ -85.5948348, 10.2960722 ], [ -85.5947852, 10.2960204 ], [ -85.5947939, 10.2959471 ], [ -85.5948583, 10.2959122 ], [ -85.5949346, 10.2959116 ], [ -85.5950105, 10.2959223 ], [ -85.5950817, 10.2959475 ], [ -85.5951569, 10.2959405 ], [ -85.5952335, 10.2959451 ], [ -85.59531, 10.2959453 ], [ -85.5953574, 10.2958946 ], [ -85.5953767, 10.2958211 ], [ -85.5953631, 10.2957498 ], [ -85.5953067, 10.295702 ], [ -85.595236, 10.2956743 ], [ -85.595161, 10.2956594 ], [ -85.5950844, 10.2956548 ], [ -85.5950128, 10.295629 ] ] } },
{ "type": "Feature", "properties": { "offset_m": 10.0, "length_m": 189.59325564945101, "mean_slope_pct": 7.4838066075159153, "mean_twi": 5.1808440500500543, "mean_spi": 0.83032632679473573, "prioridad": "media", "tipo": "dibujo_offset_drenaje_10m_v4", "criterio": "lineas a distancia horizontal regular desde drenajes; estilo grafico tipo paper; revisar contra curvas de nivel y campo", "priority_rank": 1 }, "geometry": { "type": "LineString", "coordinates": [ [ -85.5955266, 10.2961914 ], [ -85.5956031, 10.2961945 ], [ -85.595678, 10.2961835 ], [ -85.5957439, 10.2961453 ], [ -85.5958191, 10.2961352 ], [ -85.5958957, 10.296141 ], [ -85.595971, 10.2961547 ], [ -85.596045, 10.296175 ], [ -85.5961182, 10.2961981 ], [ -85.596191, 10.2962225 ], [ -85.5962642, 10.2962449 ], [ -85.59634, 10.2962572 ], [ -85.5963461, 10.2961965 ], [ -85.5962945, 10.2961415 ], [ -85.5962747, 10.2960692 ], [ -85.5962977, 10.2959988 ], [ -85.5963667, 10.2959725 ], [ -85.5964404, 10.2959927 ], [ -85.5965094, 10.2960258 ], [ -85.5965498, 10.296088 ], [ -85.5965678, 10.2961619 ], [ -85.5965707, 10.2962375 ], [ -85.5965688, 10.2963058 ], [ -85.5966349, 10.2963445 ] ] } },
{ "type": "Feature", "properties": { "offset_m": 10.0, "length_m": 186.40219511823358, "mean_slope_pct": 1.2626921735380008, "mean_twi": 5.5658864264795724, "mean_spi": 0.07511566353945423, "prioridad": "media", "tipo": "dibujo_offset_drenaje_10m_v4", "criterio": "lineas a distancia horizontal regular desde drenajes; estilo grafico tipo paper; revisar contra curvas de nivel y campo", "priority_rank": 1 }, "geometry": { "type": "LineString", "coordinates": [ [ -85.5948927, 10.2963262 ], [ -85.5948148, 10.2963174 ], [ -85.5947369, 10.296309 ], [ -85.5946603, 10.2962945 ], [ -85.5945861, 10.2962695 ], [ -85.5945219, 10.2962281 ], [ -85.5944612, 10.2961798 ], [ -85.5943889, 10.2961559 ], [ -85.5943128, 10.2961419 ], [ -85.594238, 10.2961296 ], [ -85.5941614, 10.2961413 ], [ -85.5940928, 10.2961096 ], [ -85.5940301, 10.2960639 ], [ -85.5939608, 10.2960279 ], [ -85.5938892, 10.2959964 ], [ -85.5938113, 10.2960002 ], [ -85.5937527, 10.2960484 ], [ -85.5936868, 10.2960894 ], [ -85.5936106, 10.2960817 ], [ -85.5935704, 10.2960194 ], [ -85.5936008, 10.2959499 ], [ -85.593649, 10.2958887 ], [ -85.593698, 10.2958281 ] ] } },
{ "type": "Feature", "properties": { "offset_m": 10.0, "length_m": 185.42191745936941, "mean_slope_pct": 1.620221117268438, "mean_twi": 6.1168839979120415, "mean_spi": 0.16808234464524005, "prioridad": "media", "tipo": "dibujo_offset_drenaje_10m_v4", "criterio": "lineas a distancia horizontal regular desde drenajes; estilo grafico tipo paper; revisar contra curvas de nivel y campo", "priority_rank": 1 }, "geometry": { "type": "LineString", "coordinates": [ [ -85.5959697, 10.2958599 ], [ -85.5960412, 10.2958407 ], [ -85.5961133, 10.2958153 ], [ -85.5961889, 10.2958087 ], [ -85.5962572, 10.2958381 ], [ -85.5962811, 10.2959062 ], [ -85.5962374, 10.2959645 ], [ -85.5961687, 10.2959985 ], [ -85.5960968, 10.2960253 ], [ -85.5960247, 10.2960514 ], [ -85.5959501, 10.2960697 ], [ -85.5958773, 10.2960556 ], [ -85.5958141, 10.2960126 ], [ -85.5957561, 10.2959626 ], [ -85.5956914, 10.2959222 ], [ -85.5956171, 10.2959098 ], [ -85.5955523, 10.2958981 ], [ -85.5955302, 10.2959692 ], [ -85.5954907, 10.2960343 ], [ -85.595437, 10.2960887 ], [ -85.5953789, 10.2961383 ], [ -85.5953744, 10.2961712 ], [ -85.5954503, 10.296183 ], [ -85.5955266, 10.2961914 ] ] } },
{ "type": "Feature", "properties": { "offset_m": 10.0, "length_m": 184.86525109991359, "mean_slope_pct": 1.5634327945501909, "mean_twi": 5.0732189300594257, "mean_spi": 0.06042777205416873, "prioridad": "media", "tipo": "dibujo_offset_drenaje_10m_v4", "criterio": "lineas a distancia horizontal regular desde drenajes; estilo grafico tipo paper; revisar contra curvas de nivel y campo", "priority_rank": 1 }, "geometry": { "type": "LineString", "coordinates": [ [ -85.593723, 10.2957864 ], [ -85.5937475, 10.2957762 ], [ -85.5937965, 10.2957557 ], [ -85.5938534, 10.2957675 ], [ -85.5939184, 10.2958115 ], [ -85.5940005, 10.2958485 ], [ -85.5940996, 10.2958786 ], [ -85.5941635, 10.2959058 ], [ -85.5941923, 10.2959302 ], [ -85.5942383, 10.2959423 ], [ -85.5943014, 10.295942 ], [ -85.5943472, 10.2959504 ], [ -85.5943755, 10.2959674 ], [ -85.5944209, 10.2959775 ], [ -85.5944834, 10.2959807 ], [ -85.5945312, 10.2959916 ], [ -85.5945644, 10.2960102 ], [ -85.5946018, 10.2960445 ], [ -85.5946434, 10.2960943 ], [ -85.5947003, 10.2961195 ], [ -85.5947725, 10.29612 ], [ -85.5948268, 10.2961288 ], [ -85.5948633, 10.2961458 ], [ -85.5949044, 10.2961501 ], [ -85.5949501, 10.2961417 ], [ -85.5950096, 10.2961506 ], [ -85.595083, 10.2961767 ], [ -85.5951382, 10.2961777 ], [ -85.5951754, 10.2961536 ], [ -85.5952164, 10.2961397 ], [ -85.5952612, 10.2961361 ], [ -85.5952836, 10.2961343 ] ] } },
{ "type": "Feature", "properties": { "offset_m": 10.0, "length_m": 183.60130671753353, "mean_slope_pct": 1.3551219623874535, "mean_twi": 6.1626949446899992, "mean_spi": 0.057637756126166576, "prioridad": "media", "tipo": "dibujo_offset_drenaje_10m_v4", "criterio": "lineas a distancia horizontal regular desde drenajes; estilo grafico tipo paper; revisar contra curvas de nivel y campo", "priority_rank": 1 }, "geometry": { "type": "LineString", "coordinates": [ [ -85.5961532, 10.2964047 ], [ -85.5960787, 10.2963806 ], [ -85.5960039, 10.2963574 ], [ -85.5959281, 10.2963378 ], [ -85.595851, 10.296326 ], [ -85.595777, 10.2963437 ], [ -85.5957183, 10.2963937 ], [ -85.5956414, 10.2963924 ], [ -85.5955649, 10.2963755 ], [ -85.595487, 10.2963678 ], [ -85.5954086, 10.2963675 ], [ -85.5953309, 10.2963585 ], [ -85.5952607, 10.2963463 ], [ -85.5952078, 10.296401 ], [ -85.5951697, 10.2964685 ], [ -85.5951484, 10.2965425 ], [ -85.5951022, 10.2965997 ], [ -85.5950283, 10.2966012 ], [ -85.5949842, 10.2965391 ], [ -85.5949767, 10.2964628 ], [ -85.5949947, 10.296388 ], [ -85.5949703, 10.2963368 ], [ -85.5948927, 10.2963262 ] ] } },
{ "type": "Feature", "properties": { "offset_m": 10.0, "length_m": 183.48711750602877, "mean_slope_pct": 2.3248425180261787, "mean_twi": 5.0313859754774874, "mean_spi": 0.13103022458381194, "prioridad": "media", "tipo": "dibujo_offset_drenaje_10m_v4", "criterio": "lineas a distancia horizontal regular desde drenajes; estilo grafico tipo paper; revisar contra curvas de nivel y campo", "priority_rank": 1 }, "geometry": { "type": "LineString", "coordinates": [ [ -85.5967877, 10.2965245 ], [ -85.5967093, 10.2965242 ], [ -85.5966309, 10.2965237 ], [ -85.5965541, 10.2965107 ], [ -85.5964957, 10.2965343 ], [ -85.5964658, 10.2966055 ], [ -85.596446, 10.2966801 ], [ -85.5964623, 10.2967514 ], [ -85.5964631, 10.2968282 ], [ -85.5964231, 10.296892 ], [ -85.5963512, 10.2969181 ], [ -85.5962733, 10.296923 ], [ -85.5961951, 10.2969201 ], [ -85.5961225, 10.2968963 ], [ -85.5960995, 10.2968241 ], [ -85.5961394, 10.2967616 ], [ -85.5962152, 10.2967458 ], [ -85.5962409, 10.2966787 ], [ -85.5962662, 10.2966054 ], [ -85.5962955, 10.2965334 ], [ -85.5962979, 10.2964638 ], [ -85.5962269, 10.2964308 ], [ -85.5961532, 10.2964047 ] ] } },
{ "type": "Feature", "properties": { "offset_m": 10.0, "length_m": 176.40863727344725, "mean_slope_pct": 1.0583153631199489, "mean_twi": 6.4284633206260935, "mean_spi": 0.048378671347931751, "prioridad": "media", "tipo": "dibujo_offset_drenaje_10m_v4", "criterio": "lineas a distancia horizontal regular desde drenajes; estilo grafico tipo paper; revisar contra curvas de nivel y campo", "priority_rank": 1 }, "geometry": { "type": "LineString", "coordinates": [ [ -85.5928396, 10.2953068 ], [ -85.5927899, 10.2952528 ], [ -85.5927724, 10.295179 ], [ -85.5927312, 10.2951142 ], [ -85.5926711, 10.2950715 ], [ -85.5925958, 10.2950526 ], [ -85.5925181, 10.2950558 ], [ -85.5924404, 10.295059 ], [ -85.5923631, 10.2950506 ], [ -85.5922922, 10.2950232 ], [ -85.5922461, 10.2949636 ], [ -85.5922162, 10.2948944 ], [ -85.5921404, 10.2948794 ], [ -85.5920629, 10.2948795 ], [ -85.5919868, 10.2948945 ], [ -85.591915, 10.2948681 ], [ -85.5918516, 10.2948257 ], [ -85.5917764, 10.2948075 ], [ -85.5916986, 10.2948076 ], [ -85.5916225, 10.2947938 ], [ -85.59157, 10.2947413 ], [ -85.591555, 10.2946667 ] ] } },
{ "type": "Feature", "properties": { "offset_m": 10.0, "length_m": 174.00958977255445, "mean_slope_pct": 0.6181513234263375, "mean_twi": 7.5775273688614933, "mean_spi": 0.13219194639137169, "prioridad": "media", "tipo": "dibujo_offset_drenaje_10m_v4", "criterio": "lineas a distancia horizontal regular desde drenajes; estilo grafico tipo paper; revisar contra curvas de nivel y campo", "priority_rank": 1 }, "geometry": { "type": "LineString", "coordinates": [ [ -85.591555, 10.2946667 ], [ -85.5914933, 10.2946351 ], [ -85.5914163, 10.2946463 ], [ -85.5913414, 10.2946668 ], [ -85.5912704, 10.2946975 ], [ -85.5911943, 10.2946986 ], [ -85.5911207, 10.2946739 ], [ -85.5910486, 10.294645 ], [ -85.5909846, 10.2946016 ], [ -85.5909314, 10.2945464 ], [ -85.5908742, 10.2945281 ], [ -85.5908495, 10.2945971 ], [ -85.5908286, 10.294671 ], [ -85.5907913, 10.294737 ], [ -85.5907259, 10.294776 ], [ -85.5906536, 10.2947561 ], [ -85.5906283, 10.2946862 ], [ -85.5906576, 10.2946158 ], [ -85.5906619, 10.2945403 ], [ -85.5906706, 10.2944645 ], [ -85.5907056, 10.2943965 ], [ -85.5907569, 10.2943385 ] ] } },
{ "type": "Feature", "properties": { "offset_m": 10.0, "length_m": 168.92608948548531, "mean_slope_pct": 1.0379994511604309, "mean_twi": 7.1022803768128036, "mean_spi": 0.36748257182267946, "prioridad": "media", "tipo": "dibujo_offset_drenaje_10m_v4", "criterio": "lineas a distancia horizontal regular desde drenajes; estilo grafico tipo paper; revisar contra curvas de nivel y campo", "priority_rank": 1 }, "geometry": { "type": "LineString", "coordinates": [ [ -85.5932258, 10.2956208 ], [ -85.5932909, 10.2955793 ], [ -85.5933681, 10.2955828 ], [ -85.5934426, 10.2956047 ], [ -85.5935176, 10.2955956 ], [ -85.5935822, 10.2955542 ], [ -85.593656, 10.2955355 ], [ -85.5937148, 10.2954863 ], [ -85.5936928, 10.2954605 ], [ -85.593623, 10.295494 ], [ -85.5935502, 10.2955192 ], [ -85.5934732, 10.2955239 ], [ -85.5933984, 10.2955067 ], [ -85.5933327, 10.2954673 ], [ -85.5932756, 10.2954153 ], [ -85.5932619, 10.295344 ], [ -85.5932181, 10.2953244 ], [ -85.5931444, 10.2953052 ], [ -85.5930708, 10.2953242 ], [ -85.5929932, 10.295327 ], [ -85.5929155, 10.2953223 ], [ -85.5928396, 10.2953068 ] ] } },
{ "type": "Feature", "properties": { "offset_m": 10.0, "length_m": 167.49267677361607, "mean_slope_pct": 1.3347872249782085, "mean_twi": 6.2448133378540387, "mean_spi": 0.046358022410249881, "prioridad": "media", "tipo": "dibujo_offset_drenaje_10m_v4", "criterio": "lineas a distancia horizontal regular desde drenajes; estilo grafico tipo paper; revisar contra curvas de nivel y campo", "priority_rank": 1 }, "geometry": { "type": "LineString", "coordinates": [ [ -85.5917504, 10.2945238 ], [ -85.5917408, 10.2946002 ], [ -85.591804, 10.2946152 ], [ -85.5918781, 10.2945913 ], [ -85.5919492, 10.2946138 ], [ -85.591994, 10.294677 ], [ -85.5920682, 10.2946892 ], [ -85.5921463, 10.2946946 ], [ -85.5922239, 10.294706 ], [ -85.5923009, 10.2947204 ], [ -85.5923749, 10.2947457 ], [ -85.5924282, 10.294802 ], [ -85.5924728, 10.294851 ], [ -85.5925508, 10.2948545 ], [ -85.5926288, 10.2948467 ], [ -85.592707, 10.2948432 ], [ -85.592782, 10.2948558 ], [ -85.5928293, 10.2949168 ], [ -85.5928619, 10.2949872 ], [ -85.59291, 10.2950481 ], [ -85.5929536, 10.2951114 ] ] } },
{ "type": "Feature", "properties": { "offset_m": 10.0, "length_m": 165.83286696216305, "mean_slope_pct": 1.6653344705700874, "mean_twi": 5.423495838027458, "mean_spi": 0.049584591800457038, "prioridad": "media", "tipo": "dibujo_offset_drenaje_10m_v4", "criterio": "lineas a distancia horizontal regular desde drenajes; estilo grafico tipo paper; revisar contra curvas de nivel y campo", "priority_rank": 1 }, "geometry": { "type": "LineString", "coordinates": [ [ -85.5929536, 10.2951114 ], [ -85.593018, 10.2951456 ], [ -85.5930864, 10.2951117 ], [ -85.5931627, 10.2951067 ], [ -85.5932291, 10.295147 ], [ -85.5932921, 10.2951922 ], [ -85.5933658, 10.2951901 ], [ -85.5934334, 10.2952235 ], [ -85.5934683, 10.2952909 ], [ -85.5935203, 10.2953305 ], [ -85.5935936, 10.2953072 ], [ -85.5936651, 10.2952789 ], [ -85.5937432, 10.2952748 ], [ -85.5938124, 10.2952524 ], [ -85.593808, 10.2951757 ], [ -85.5937795, 10.295104 ], [ -85.5937253, 10.29505 ], [ -85.5936506, 10.2950458 ], [ -85.5935936, 10.2949966 ], [ -85.5935989, 10.2949229 ], [ -85.5936477, 10.2948625 ] ] } },
{ "type": "Feature", "properties": { "offset_m": 10.0, "length_m": 112.32465859146444, "mean_slope_pct": 1.8027908844607217, "mean_twi": 5.224612579116557, "mean_spi": 0.060098162859633542, "prioridad": "media", "tipo": "dibujo_offset_drenaje_10m_v4", "criterio": "lineas a distancia horizontal regular desde drenajes; estilo grafico tipo paper; revisar contra curvas de nivel y campo", "priority_rank": 1 }, "geometry": { "type": "LineString", "coordinates": [ [ -85.594006, 10.2949246 ], [ -85.5939912, 10.2949485 ], [ -85.5939616, 10.2949962 ], [ -85.5939646, 10.2950696 ], [ -85.594, 10.2951686 ], [ -85.5939941, 10.2952948 ], [ -85.5939466, 10.2954481 ], [ -85.5938828, 10.2955713 ], [ -85.5938025, 10.2956643 ], [ -85.5937262, 10.2957203 ], [ -85.5936539, 10.2957394 ], [ -85.5936177, 10.2957489 ] ] } },
{ "type": "Feature", "properties": { "offset_m": 10.0, "length_m": 100.77180856904815, "mean_slope_pct": 0.53521613900860154, "mean_twi": 6.6745832991271676, "mean_spi": 0.031471690771628306, "prioridad": "media", "tipo": "dibujo_offset_drenaje_10m_v4", "criterio": "lineas a distancia horizontal regular desde drenajes; estilo grafico tipo paper; revisar contra curvas de nivel y campo", "priority_rank": 1 }, "geometry": { "type": "LineString", "coordinates": [ [ -85.5901623, 10.2946076 ], [ -85.5901627, 10.2946384 ], [ -85.5901635, 10.2947001 ], [ -85.5901577, 10.2947425 ], [ -85.5901453, 10.2947657 ], [ -85.590123, 10.294784 ], [ -85.5900908, 10.2947974 ], [ -85.5900585, 10.2947976 ], [ -85.5900262, 10.2947845 ], [ -85.5899986, 10.2947395 ], [ -85.5899757, 10.2946624 ], [ -85.5899701, 10.2946029 ], [ -85.5899817, 10.294561 ], [ -85.5899677, 10.2944978 ], [ -85.5899281, 10.2944133 ], [ -85.5899099, 10.2943489 ], [ -85.5899131, 10.2943045 ], [ -85.5899266, 10.2942622 ], [ -85.5899503, 10.2942222 ], [ -85.5899622, 10.2942022 ] ] } },
{ "type": "Feature", "properties": { "offset_m": 10.0, "length_m": 89.093324032089839, "mean_slope_pct": 1.0409122976389797, "mean_twi": 6.5095954208959492, "mean_spi": 0.57907683486692896, "prioridad": "media", "tipo": "dibujo_offset_drenaje_10m_v4", "criterio": "lineas a distancia horizontal regular desde drenajes; estilo grafico tipo paper; revisar contra curvas de nivel y campo", "priority_rank": 1 }, "geometry": { "type": "LineString", "coordinates": [ [ -85.5895977, 10.2956862 ], [ -85.5895906, 10.2956741 ], [ -85.5895766, 10.2956498 ], [ -85.5895729, 10.2956207 ], [ -85.5895795, 10.2955868 ], [ -85.5896027, 10.2955454 ], [ -85.5896424, 10.2954966 ], [ -85.5896794, 10.2954687 ], [ -85.5897136, 10.2954618 ], [ -85.5897815, 10.2954938 ], [ -85.5898832, 10.2955647 ], [ -85.5899544, 10.2956067 ], [ -85.5899952, 10.2956198 ], [ -85.5900297, 10.2956426 ], [ -85.590058, 10.2956752 ], [ -85.590074, 10.2957121 ], [ -85.5900777, 10.2957535 ], [ -85.5900796, 10.2957741 ] ] } },
{ "type": "Feature", "properties": { "offset_m": 10.0, "length_m": 50.296362797032486, "mean_slope_pct": 0.9840150773525238, "mean_twi": 6.0955859885857633, "mean_spi": 0.036346197468458213, "prioridad": "media", "tipo": "dibujo_offset_drenaje_10m_v4", "criterio": "lineas a distancia horizontal regular desde drenajes; estilo grafico tipo paper; revisar contra curvas de nivel y campo", "priority_rank": 1 }, "geometry": { "type": "LineString", "coordinates": [ [ -85.59105, 10.2943922 ], [ -85.5910571, 10.2944081 ], [ -85.5910712, 10.2944398 ], [ -85.5911167, 10.2944703 ], [ -85.5911938, 10.2944993 ], [ -85.5912529, 10.294504 ], [ -85.5912941, 10.2944842 ], [ -85.5913501, 10.2944717 ], [ -85.591421, 10.2944663 ], [ -85.5914564, 10.2944637 ] ] } },
{ "type": "Feature", "properties": { "offset_m": 10.0, "length_m": 45.94631117524608, "mean_slope_pct": 1.5473087191581727, "mean_twi": 6.813290261724295, "mean_spi": 3.4418449671369644, "prioridad": "media", "tipo": "dibujo_offset_drenaje_10m_v4", "criterio": "lineas a distancia horizontal regular desde drenajes; estilo grafico tipo paper; revisar contra curvas de nivel y campo", "priority_rank": 1 }, "geometry": { "type": "LineString", "coordinates": [ [ -85.5935792, 10.2957845 ], [ -85.5935307, 10.2957867 ], [ -85.5934336, 10.2957911 ], [ -85.5933503, 10.295775 ], [ -85.5932805, 10.2957384 ], [ -85.593239, 10.2957032 ], [ -85.5932256, 10.2956693 ], [ -85.593219, 10.2956524 ] ] } },
{ "type": "Feature", "properties": { "offset_m": 10.0, "length_m": 44.338881089013356, "mean_slope_pct": 0.39255833029747011, "mean_twi": 6.7251064213846066, "mean_spi": 0.012526940674173245, "prioridad": "media", "tipo": "dibujo_offset_drenaje_10m_v4", "criterio": "lineas a distancia horizontal regular desde drenajes; estilo grafico tipo paper; revisar contra curvas de nivel y campo", "priority_rank": 1 }, "geometry": { "type": "LineString", "coordinates": [ [ -85.5901448, 10.294229 ], [ -85.5901432, 10.2942458 ], [ -85.5901399, 10.2942793 ], [ -85.5901289, 10.2943079 ], [ -85.5901103, 10.2943314 ], [ -85.590121, 10.2943815 ], [ -85.590161, 10.2944583 ], [ -85.5901763, 10.2945245 ], [ -85.5901669, 10.2945799 ], [ -85.5901623, 10.2946076 ] ] } },
{ "type": "Feature", "properties": { "offset_m": 10.0, "length_m": 42.743348281732153, "mean_slope_pct": 0.82404303550720215, "mean_twi": 5.1135631490419495, "mean_spi": 0.014121076205382999, "prioridad": "media", "tipo": "dibujo_offset_drenaje_10m_v4", "criterio": "lineas a distancia horizontal regular desde drenajes; estilo grafico tipo paper; revisar contra curvas de nivel y campo", "priority_rank": 1 }, "geometry": { "type": "LineString", "coordinates": [ [ -85.5908656, 10.2959362 ], [ -85.5908755, 10.2959181 ], [ -85.5908955, 10.2958818 ], [ -85.5909226, 10.2958603 ], [ -85.5909568, 10.2958534 ], [ -85.591005, 10.2958622 ], [ -85.5910672, 10.2958867 ], [ -85.5911132, 10.2959223 ], [ -85.5911428, 10.2959691 ], [ -85.5911576, 10.2959924 ] ] } },
{ "type": "Feature", "properties": { "offset_m": 20.0, "length_m": 204.46386653660605, "mean_slope_pct": 7.8570748901367189, "mean_twi": 5.0859263547193327, "mean_spi": 0.36172398290052354, "prioridad": "alta", "tipo": "dibujo_offset_drenaje_10m_v4", "criterio": "lineas a distancia horizontal regular desde drenajes; estilo grafico tipo paper; revisar contra curvas de nivel y campo", "priority_rank": 0 }, "geometry": { "type": "LineString", "coordinates": [ [ -85.5952142, 10.2953821 ], [ -85.5952908, 10.2953975 ], [ -85.5953636, 10.2954243 ], [ -85.5954294, 10.2954662 ], [ -85.5954853, 10.2955205 ], [ -85.5955471, 10.295567 ], [ -85.5956154, 10.2956048 ], [ -85.5956906, 10.2956262 ], [ -85.595765, 10.2956496 ], [ -85.5958363, 10.2956815 ], [ -85.5958996, 10.2957268 ], [ -85.5959724, 10.2957504 ], [ -85.5960476, 10.2957381 ], [ -85.5961241, 10.2957246 ], [ -85.5962018, 10.295728 ], [ -85.5962777, 10.2957456 ], [ -85.5963389, 10.2957898 ], [ -85.5963721, 10.295859 ], [ -85.5964379, 10.2959 ], [ -85.5965112, 10.2959271 ], [ -85.596578, 10.2959668 ], [ -85.5966243, 10.2960283 ], [ -85.596652, 10.2961006 ], [ -85.5966675, 10.2961764 ], [ -85.5966677, 10.296254 ] ] } },
{ "type": "Feature", "properties": { "offset_m": 20.0, "length_m": 202.67419911119865, "mean_slope_pct": 1.1265772843360902, "mean_twi": 6.0677608133629759, "mean_spi": 0.13041490366034586, "prioridad": "media", "tipo": "dibujo_offset_drenaje_10m_v4", "criterio": "lineas a distancia horizontal regular desde drenajes; estilo grafico tipo paper; revisar contra curvas de nivel y campo", "priority_rank": 1 }, "geometry": { "type": "LineString", "coordinates": [ [ -85.5941046, 10.2949427 ], [ -85.5940696, 10.2950105 ], [ -85.5940804, 10.2950864 ], [ -85.5940983, 10.2951614 ], [ -85.594098, 10.2952384 ], [ -85.5940832, 10.2953144 ], [ -85.5940628, 10.2953892 ], [ -85.5940387, 10.295463 ], [ -85.5940089, 10.2955345 ], [ -85.5939711, 10.295602 ], [ -85.5939279, 10.2956644 ], [ -85.5939605, 10.2957234 ], [ -85.59403, 10.2957589 ], [ -85.5941014, 10.2957904 ], [ -85.5941736, 10.2958206 ], [ -85.5942487, 10.2958423 ], [ -85.5943241, 10.2958628 ], [ -85.5944014, 10.2958751 ], [ -85.5944785, 10.2958883 ], [ -85.5945528, 10.2959128 ], [ -85.5946204, 10.2959501 ], [ -85.5946893, 10.2959648 ], [ -85.5947212, 10.2958955 ], [ -85.5947801, 10.2958457 ], [ -85.5948545, 10.2958279 ] ] } },
{ "type": "Feature", "properties": { "offset_m": 20.0, "length_m": 201.96688499877206, "mean_slope_pct": 0.90870943427085882, "mean_twi": 7.0573203754957321, "mean_spi": 0.30510228165343789, "prioridad": "media", "tipo": "dibujo_offset_drenaje_10m_v4", "criterio": "lineas a distancia horizontal regular desde drenajes; estilo grafico tipo paper; revisar contra curvas de nivel y campo", "priority_rank": 1 }, "geometry": { "type": "LineString", "coordinates": [ [ -85.5948545, 10.2958279 ], [ -85.5949322, 10.2958288 ], [ -85.5950098, 10.2958393 ], [ -85.5950877, 10.2958459 ], [ -85.5951659, 10.2958486 ], [ -85.5952434, 10.2958412 ], [ -85.5952584, 10.2957868 ], [ -85.5951885, 10.295758 ], [ -85.5951108, 10.29575 ], [ -85.5950344, 10.2957382 ], [ -85.5949637, 10.295705 ], [ -85.594897, 10.2956654 ], [ -85.5948361, 10.2956166 ], [ -85.5947758, 10.2955672 ], [ -85.5947219, 10.295511 ], [ -85.5946869, 10.2954438 ], [ -85.5946917, 10.2953675 ], [ -85.5947268, 10.2952991 ], [ -85.5947902, 10.2952553 ], [ -85.5948662, 10.2952398 ], [ -85.5949434, 10.2952488 ], [ -85.5950124, 10.2952846 ], [ -85.5950728, 10.2953337 ], [ -85.5951375, 10.2953757 ], [ -85.5952142, 10.2953821 ] ] } },
{ "type": "Feature", "properties": { "offset_m": 20.0, "length_m": 199.62155668565708, "mean_slope_pct": 0.69339610884586966, "mean_twi": 6.7448121426844816, "mean_spi": 0.090817637114817676, "prioridad": "media", "tipo": "dibujo_offset_drenaje_10m_v4", "criterio": "lineas a distancia horizontal regular desde drenajes; estilo grafico tipo paper; revisar contra curvas de nivel y campo", "priority_rank": 1 }, "geometry": { "type": "LineString", "coordinates": [ [ -85.5917475, 10.2949005 ], [ -85.5916709, 10.294896 ], [ -85.5915956, 10.2948823 ], [ -85.5915311, 10.2948442 ], [ -85.591487, 10.2947824 ], [ -85.5914206, 10.294759 ], [ -85.591345, 10.2947658 ], [ -85.5912696, 10.29478 ], [ -85.5911934, 10.294776 ], [ -85.5911176, 10.2947663 ], [ -85.5910465, 10.2947376 ], [ -85.5909738, 10.2947211 ], [ -85.5909003, 10.2947351 ], [ -85.5908528, 10.2947949 ], [ -85.590799, 10.2948489 ], [ -85.5907254, 10.294867 ], [ -85.5906505, 10.2948543 ], [ -85.5905865, 10.2948136 ], [ -85.5905479, 10.2947492 ], [ -85.59054, 10.2946746 ], [ -85.5905614, 10.2946021 ], [ -85.5905737, 10.2945271 ], [ -85.590585, 10.2944524 ], [ -85.5906137, 10.2943824 ], [ -85.590651, 10.294316 ] ] } },
{ "type": "Feature", "properties": { "offset_m": 20.0, "length_m": 198.5709947092833, "mean_slope_pct": 1.1319299135357141, "mean_twi": 7.2685453708677104, "mean_spi": 0.30566804733259179, "prioridad": "media", "tipo": "dibujo_offset_drenaje_10m_v4", "criterio": "lineas a distancia horizontal regular desde drenajes; estilo grafico tipo paper; revisar contra curvas de nivel y campo", "priority_rank": 1 }, "geometry": { "type": "LineString", "coordinates": [ [ -85.593138, 10.2955972 ], [ -85.5931872, 10.2955389 ], [ -85.5932029, 10.2954696 ], [ -85.5931465, 10.2954277 ], [ -85.5930714, 10.2954131 ], [ -85.5929947, 10.295412 ], [ -85.592918, 10.295411 ], [ -85.5928425, 10.2953981 ], [ -85.5927731, 10.2953712 ], [ -85.5927227, 10.2953149 ], [ -85.5926964, 10.2952444 ], [ -85.5926582, 10.2951795 ], [ -85.5925877, 10.2951572 ], [ -85.5925113, 10.2951522 ], [ -85.5924346, 10.2951517 ], [ -85.5923586, 10.2951425 ], [ -85.5922854, 10.2951226 ], [ -85.5922214, 10.2950817 ], [ -85.5921728, 10.2950239 ], [ -85.5921112, 10.2949856 ], [ -85.5920358, 10.2949829 ], [ -85.5919598, 10.2949802 ], [ -85.5918878, 10.2949572 ], [ -85.5918214, 10.2949204 ], [ -85.5917475, 10.2949005 ] ] } },
{ "type": "Feature", "properties": { "offset_m": 20.0, "length_m": 196.0635209095939, "mean_slope_pct": 1.8638387496272724, "mean_twi": 6.2148988644396068, "mean_spi": 0.11113207015587956, "prioridad": "media", "tipo": "dibujo_offset_drenaje_10m_v4", "criterio": "lineas a distancia horizontal regular desde drenajes; estilo grafico tipo paper; revisar contra curvas de nivel y campo", "priority_rank": 1 }, "geometry": { "type": "LineString", "coordinates": [ [ -85.5967833, 10.2966149 ], [ -85.5967044, 10.2966142 ], [ -85.5966254, 10.2966134 ], [ -85.5965567, 10.2966424 ], [ -85.5965448, 10.2967187 ], [ -85.5965539, 10.2967962 ], [ -85.5965404, 10.2968724 ], [ -85.5964988, 10.296938 ], [ -85.5964414, 10.2969911 ], [ -85.5963651, 10.2970092 ], [ -85.5962864, 10.2970138 ], [ -85.5962074, 10.2970129 ], [ -85.5961305, 10.2969962 ], [ -85.5960628, 10.2969573 ], [ -85.5960213, 10.296892 ], [ -85.5960112, 10.2968151 ], [ -85.5960337, 10.2967418 ], [ -85.5960893, 10.296688 ], [ -85.5961487, 10.2966391 ], [ -85.5961837, 10.2965697 ], [ -85.5961444, 10.2965126 ], [ -85.5960749, 10.2964792 ], [ -85.5959997, 10.2964555 ], [ -85.5959239, 10.2964337 ] ] } },
{ "type": "Feature", "properties": { "offset_m": 20.0, "length_m": 195.90232190650286, "mean_slope_pct": 1.2380508407950401, "mean_twi": 6.1282796681353178, "mean_spi": 0.19019861636541738, "prioridad": "media", "tipo": "dibujo_offset_drenaje_10m_v4", "criterio": "lineas a distancia horizontal regular desde drenajes; estilo grafico tipo paper; revisar contra curvas de nivel y campo", "priority_rank": 1 }, "geometry": { "type": "LineString", "coordinates": [ [ -85.5959239, 10.2964337 ], [ -85.5958469, 10.2964214 ], [ -85.5957801, 10.2964621 ], [ -85.5957071, 10.2964897 ], [ -85.5956284, 10.296485 ], [ -85.5955499, 10.2964776 ], [ -85.5954715, 10.2964683 ], [ -85.5953931, 10.2964591 ], [ -85.5953142, 10.2964602 ], [ -85.5952559, 10.2964986 ], [ -85.5952392, 10.2965745 ], [ -85.5952065, 10.2966449 ], [ -85.5951421, 10.2966892 ], [ -85.5950672, 10.2967103 ], [ -85.5949922, 10.2966897 ], [ -85.5949275, 10.2966458 ], [ -85.5948986, 10.2965745 ], [ -85.5948905, 10.2964969 ], [ -85.5948457, 10.2964414 ], [ -85.5947757, 10.2964093 ], [ -85.5946976, 10.2963978 ], [ -85.5946206, 10.2963821 ], [ -85.5945468, 10.2963546 ], [ -85.5944818, 10.2963122 ] ] } },
{ "type": "Feature", "properties": { "offset_m": 20.0, "length_m": 194.56710875114035, "mean_slope_pct": 0.90242851820463932, "mean_twi": 7.4204815443763499, "mean_spi": 0.14482047991874281, "prioridad": "media", "tipo": "dibujo_offset_drenaje_10m_v4", "criterio": "lineas a distancia horizontal regular desde drenajes; estilo grafico tipo paper; revisar contra curvas de nivel y campo", "priority_rank": 1 }, "geometry": { "type": "LineString", "coordinates": [ [ -85.5944818, 10.2963122 ], [ -85.5944184, 10.2962664 ], [ -85.5943462, 10.296237 ], [ -85.594268, 10.2962285 ], [ -85.5941897, 10.2962353 ], [ -85.5941133, 10.296224 ], [ -85.5940467, 10.2961832 ], [ -85.5939785, 10.2961441 ], [ -85.593906, 10.2961136 ], [ -85.5938295, 10.2961116 ], [ -85.5937609, 10.2961464 ], [ -85.5936901, 10.2961783 ], [ -85.5936132, 10.2961771 ], [ -85.5935442, 10.2961417 ], [ -85.5934984, 10.2960787 ], [ -85.5934794, 10.2960043 ], [ -85.5935058, 10.2959313 ], [ -85.5934678, 10.2958887 ], [ -85.5933899, 10.2958797 ], [ -85.5933153, 10.2958552 ], [ -85.5932444, 10.295821 ], [ -85.5931819, 10.2957741 ], [ -85.5931412, 10.295708 ], [ -85.5931298, 10.2956309 ] ] } },
{ "type": "Feature", "properties": { "offset_m": 20.0, "length_m": 141.96167961605323, "mean_slope_pct": 0.94111671342569236, "mean_twi": 6.7824269842313809, "mean_spi": 0.13513492710363434, "prioridad": "media", "tipo": "dibujo_offset_drenaje_10m_v4", "criterio": "lineas a distancia horizontal regular desde drenajes; estilo grafico tipo paper; revisar contra curvas de nivel y campo", "priority_rank": 1 }, "geometry": { "type": "LineString", "coordinates": [ [ -85.5926144, 10.2955325 ], [ -85.592624, 10.2955596 ], [ -85.5926431, 10.2956139 ], [ -85.5926519, 10.2956634 ], [ -85.5926504, 10.2957082 ], [ -85.592637, 10.2957682 ], [ -85.5926117, 10.2958436 ], [ -85.5926055, 10.2959099 ], [ -85.5926184, 10.2959673 ], [ -85.5926365, 10.2960021 ], [ -85.59266, 10.2960144 ], [ -85.5927402, 10.2960256 ], [ -85.5928773, 10.2960357 ], [ -85.5929715, 10.2960519 ], [ -85.5930227, 10.2960742 ], [ -85.593079, 10.296119 ], [ -85.5931403, 10.2961864 ], [ -85.5931746, 10.2962464 ], [ -85.5931818, 10.296299 ], [ -85.5931792, 10.296348 ], [ -85.5931668, 10.2963932 ], [ -85.5931606, 10.2964158 ] ] } },
{ "type": "Feature", "properties": { "offset_m": 20.0, "length_m": 130.12355757294367, "mean_slope_pct": 0.60607504239305854, "mean_twi": 7.3313007539402273, "mean_spi": 0.11842556998621914, "prioridad": "media", "tipo": "dibujo_offset_drenaje_10m_v4", "criterio": "lineas a distancia horizontal regular desde drenajes; estilo grafico tipo paper; revisar contra curvas de nivel y campo", "priority_rank": 1 }, "geometry": { "type": "LineString", "coordinates": [ [ -85.5902553, 10.2946295 ], [ -85.5902523, 10.2946676 ], [ -85.5902462, 10.2947439 ], [ -85.5902265, 10.2948025 ], [ -85.5901931, 10.2948432 ], [ -85.5901422, 10.2948705 ], [ -85.5900738, 10.2948843 ], [ -85.5900161, 10.294879 ], [ -85.5899693, 10.2948545 ], [ -85.5899332, 10.2948191 ], [ -85.589908, 10.294773 ], [ -85.5898918, 10.2947011 ], [ -85.5898847, 10.2946035 ], [ -85.5898661, 10.2945177 ], [ -85.5898358, 10.2944438 ], [ -85.5898205, 10.2943756 ], [ -85.5898202, 10.2943132 ], [ -85.5898327, 10.2942583 ], [ -85.5898581, 10.2942109 ], [ -85.5898708, 10.2941871 ] ] } },
{ "type": "Feature", "properties": { "offset_m": 20.0, "length_m": 128.68976406386062, "mean_slope_pct": 1.3298919331282377, "mean_twi": 6.5246651389969461, "mean_spi": 0.10273729641137005, "prioridad": "media", "tipo": "dibujo_offset_drenaje_10m_v4", "criterio": "lineas a distancia horizontal regular desde drenajes; estilo grafico tipo paper; revisar contra curvas de nivel y campo", "priority_rank": 1 }, "geometry": { "type": "LineString", "coordinates": [ [ -85.5920345, 10.2945662 ], [ -85.5921013, 10.2945993 ], [ -85.5921793, 10.2946134 ], [ -85.5922578, 10.2946248 ], [ -85.5923347, 10.2946422 ], [ -85.5924093, 10.294669 ], [ -85.5924699, 10.2947184 ], [ -85.5925419, 10.294747 ], [ -85.5926196, 10.294757 ], [ -85.5926989, 10.2947539 ], [ -85.5927771, 10.2947637 ], [ -85.5928464, 10.2947966 ], [ -85.5928982, 10.2948554 ], [ -85.5929326, 10.2949259 ], [ -85.5929785, 10.2949897 ], [ -85.5930444, 10.2950282 ] ] } },
{ "type": "Feature", "properties": { "offset_m": 20.0, "length_m": 126.91009597289525, "mean_slope_pct": 0.86863722205162053, "mean_twi": 7.329615199715005, "mean_spi": 0.2347026549628087, "prioridad": "media", "tipo": "dibujo_offset_drenaje_10m_v4", "criterio": "lineas a distancia horizontal regular desde drenajes; estilo grafico tipo paper; revisar contra curvas de nivel y campo", "priority_rank": 1 }, "geometry": { "type": "LineString", "coordinates": [ [ -85.5930444, 10.2950282 ], [ -85.5931211, 10.2950117 ], [ -85.593199, 10.29502 ], [ -85.5932686, 10.2950569 ], [ -85.5933381, 10.2950942 ], [ -85.5934141, 10.2951153 ], [ -85.5934847, 10.2951494 ], [ -85.5935421, 10.2952001 ], [ -85.5936194, 10.2952041 ], [ -85.5936943, 10.2951802 ], [ -85.593652, 10.2951379 ], [ -85.5935779, 10.2951121 ], [ -85.5935212, 10.2950587 ], [ -85.5934977, 10.2949846 ], [ -85.593506, 10.2949074 ], [ -85.5935436, 10.2948382 ] ] } },
{ "type": "Feature", "properties": { "offset_m": 20.0, "length_m": 118.70253307263248, "mean_slope_pct": 0.88350193841116764, "mean_twi": 6.9048691331829719, "mean_spi": 0.035555779092194748, "prioridad": "media", "tipo": "dibujo_offset_drenaje_10m_v4", "criterio": "lineas a distancia horizontal regular desde drenajes; estilo grafico tipo paper; revisar contra curvas de nivel y campo", "priority_rank": 1 }, "geometry": { "type": "LineString", "coordinates": [ [ -85.5894831, 10.2956653 ], [ -85.5894848, 10.2956368 ], [ -85.5894883, 10.2955798 ], [ -85.5895089, 10.295523 ], [ -85.5895466, 10.2954663 ], [ -85.5895848, 10.2954236 ], [ -85.5896234, 10.2953948 ], [ -85.589669, 10.2953777 ], [ -85.5897217, 10.2953723 ], [ -85.5898402, 10.2954267 ], [ -85.5900244, 10.2955409 ], [ -85.5901291, 10.2956211 ], [ -85.5901543, 10.2956673 ], [ -85.5901676, 10.2957154 ], [ -85.5901691, 10.2957655 ], [ -85.5901698, 10.2957906 ] ] } },
{ "type": "Feature", "properties": { "offset_m": 20.0, "length_m": 113.83365644863446, "mean_slope_pct": 0.82748355716466904, "mean_twi": 6.9480702783205635, "mean_spi": 0.11789176383743359, "prioridad": "media", "tipo": "dibujo_offset_drenaje_10m_v4", "criterio": "lineas a distancia horizontal regular desde drenajes; estilo grafico tipo paper; revisar contra curvas de nivel y campo", "priority_rank": 1 }, "geometry": { "type": "LineString", "coordinates": [ [ -85.5922902, 10.2962378 ], [ -85.5922772, 10.2961928 ], [ -85.5922514, 10.2961029 ], [ -85.5922378, 10.2959941 ], [ -85.5922364, 10.2958663 ], [ -85.5922208, 10.2957967 ], [ -85.592191, 10.2957853 ], [ -85.592154, 10.2957818 ], [ -85.5921097, 10.2957862 ], [ -85.5920778, 10.2958425 ], [ -85.5920583, 10.2959506 ], [ -85.5920362, 10.2960279 ], [ -85.5920115, 10.2960743 ], [ -85.5919672, 10.2961109 ], [ -85.5919033, 10.2961376 ], [ -85.5918713, 10.296151 ] ] } },
{ "type": "Feature", "properties": { "offset_m": 20.0, "length_m": 111.88578914183745, "mean_slope_pct": 0.846122145652771, "mean_twi": 7.3121309626704836, "mean_spi": 0.23621929538118458, "prioridad": "media", "tipo": "dibujo_offset_drenaje_10m_v4", "criterio": "lineas a distancia horizontal regular desde drenajes; estilo grafico tipo paper; revisar contra curvas de nivel y campo", "priority_rank": 1 }, "geometry": { "type": "LineString", "coordinates": [ [ -85.5911862, 10.2957277 ], [ -85.5911072, 10.2957225 ], [ -85.591037, 10.2956905 ], [ -85.5909935, 10.2956251 ], [ -85.5909856, 10.2955481 ], [ -85.5910098, 10.2954748 ], [ -85.5910633, 10.295418 ], [ -85.5911303, 10.2953761 ], [ -85.5912048, 10.2953507 ], [ -85.5912839, 10.2953506 ], [ -85.5913596, 10.2953691 ], [ -85.5914329, 10.2953431 ], [ -85.5915092, 10.2953235 ], [ -85.5915886, 10.2953209 ] ] } },
{ "type": "Feature", "properties": { "offset_m": 20.0, "length_m": 111.8062126513272, "mean_slope_pct": 0.67274744808673859, "mean_twi": 8.0994627221048958, "mean_spi": 0.27529744374122278, "prioridad": "media", "tipo": "dibujo_offset_drenaje_10m_v4", "criterio": "lineas a distancia horizontal regular desde drenajes; estilo grafico tipo paper; revisar contra curvas de nivel y campo", "priority_rank": 1 }, "geometry": { "type": "LineString", "coordinates": [ [ -85.5917945, 10.2961345 ], [ -85.5917342, 10.2960835 ], [ -85.5916964, 10.2960156 ], [ -85.5916902, 10.2959374 ], [ -85.5916973, 10.2958592 ], [ -85.5917144, 10.295783 ], [ -85.5917048, 10.2957061 ], [ -85.5916355, 10.2956822 ], [ -85.5915639, 10.2957151 ], [ -85.5914962, 10.2957554 ], [ -85.5914195, 10.2957702 ], [ -85.5913411, 10.2957591 ], [ -85.5912649, 10.2957371 ], [ -85.5911862, 10.2957277 ] ] } },
{ "type": "Feature", "properties": { "offset_m": 20.0, "length_m": 69.136036454062875, "mean_slope_pct": 0.73996798694133759, "mean_twi": 7.5434547089273201, "mean_spi": 0.13751599295868247, "prioridad": "media", "tipo": "dibujo_offset_drenaje_10m_v4", "criterio": "lineas a distancia horizontal regular desde drenajes; estilo grafico tipo paper; revisar contra curvas de nivel y campo", "priority_rank": 1 }, "geometry": { "type": "LineString", "coordinates": [ [ -85.5907762, 10.2959171 ], [ -85.5907832, 10.2958975 ], [ -85.5907973, 10.2958585 ], [ -85.5908168, 10.2958264 ], [ -85.5908419, 10.2958014 ], [ -85.5908886, 10.2957819 ], [ -85.5909571, 10.2957681 ], [ -85.5910306, 10.2957768 ], [ -85.5911093, 10.2958079 ], [ -85.5911659, 10.2958404 ], [ -85.5912004, 10.2958742 ], [ -85.5912247, 10.2959092 ], [ -85.5912389, 10.2959452 ], [ -85.5912459, 10.2959632 ] ] } },
{ "type": "Feature", "properties": { "offset_m": 20.0, "length_m": 44.050571178130554, "mean_slope_pct": 0.80561734139919283, "mean_twi": 8.0771874826885952, "mean_spi": 0.13160452505141046, "prioridad": "media", "tipo": "dibujo_offset_drenaje_10m_v4", "criterio": "lineas a distancia horizontal regular desde drenajes; estilo grafico tipo paper; revisar contra curvas de nivel y campo", "priority_rank": 1 }, "geometry": { "type": "LineString", "coordinates": [ [ -85.5902362, 10.2942424 ], [ -85.5902296, 10.2942704 ], [ -85.5902165, 10.2943262 ], [ -85.5902251, 10.2943853 ], [ -85.5902553, 10.2944475 ], [ -85.5902666, 10.2945164 ], [ -85.590259, 10.2945918 ], [ -85.5902553, 10.2946295 ] ] } },
{ "type": "Feature", "properties": { "offset_m": 30.0, "length_m": 182.67653360339881, "mean_slope_pct": 13.741445820439946, "mean_twi": 5.029942032070136, "mean_spi": 0.67792175255375586, "prioridad": "alta", "tipo": "dibujo_offset_drenaje_10m_v4", "criterio": "lineas a distancia horizontal regular desde drenajes; estilo grafico tipo paper; revisar contra curvas de nivel y campo", "priority_rank": 0 }, "geometry": { "type": "LineString", "coordinates": [ [ -85.5954699, 10.2953828 ], [ -85.5955278, 10.2954324 ], [ -85.5955891, 10.2954772 ], [ -85.5956559, 10.2955142 ], [ -85.595728, 10.2955392 ], [ -85.5958003, 10.2955636 ], [ -85.5958697, 10.2955956 ], [ -85.5959312, 10.2956407 ], [ -85.5960038, 10.2956545 ], [ -85.5960768, 10.2956324 ], [ -85.5961528, 10.2956255 ], [ -85.5962287, 10.2956344 ], [ -85.5963022, 10.2956556 ], [ -85.5963658, 10.2956973 ], [ -85.5964146, 10.2957554 ], [ -85.5964721, 10.2958049 ], [ -85.5965397, 10.2958394 ], [ -85.5966079, 10.2958737 ], [ -85.5966643, 10.2959242 ], [ -85.5967085, 10.2959859 ], [ -85.5967349, 10.296057 ], [ -85.5967546, 10.29613 ], [ -85.5968116, 10.2961629 ] ] } },
{ "type": "Feature", "properties": { "offset_m": 30.0, "length_m": 191.66225055508784, "mean_slope_pct": 0.67805883579927939, "mean_twi": 7.6085069507420613, "mean_spi": 0.11300782041407324, "prioridad": "media", "tipo": "dibujo_offset_drenaje_10m_v4", "criterio": "lineas a distancia horizontal regular desde drenajes; estilo grafico tipo paper; revisar contra curvas de nivel y campo", "priority_rank": 1 }, "geometry": { "type": "LineString", "coordinates": [ [ -85.5915572, 10.2949565 ], [ -85.5914935, 10.2949163 ], [ -85.5914346, 10.2948695 ], [ -85.5913606, 10.2948506 ], [ -85.5912871, 10.2948714 ], [ -85.5912114, 10.2948721 ], [ -85.5911364, 10.2948603 ], [ -85.5910637, 10.2948369 ], [ -85.5909889, 10.2948351 ], [ -85.5909186, 10.2948572 ], [ -85.5908608, 10.2949068 ], [ -85.5907956, 10.2949462 ], [ -85.5907206, 10.2949585 ], [ -85.5906449, 10.2949504 ], [ -85.5905767, 10.2949172 ], [ -85.5905173, 10.2948694 ], [ -85.5904744, 10.2948067 ], [ -85.5904518, 10.2947344 ], [ -85.5904498, 10.2946588 ], [ -85.5904583, 10.2945838 ], [ -85.5904722, 10.2945093 ], [ -85.5904922, 10.2944362 ], [ -85.5905191, 10.2943655 ], [ -85.5905483, 10.2942955 ] ] } },
{ "type": "Feature", "properties": { "offset_m": 30.0, "length_m": 188.47224503489184, "mean_slope_pct": 1.0662816435746525, "mean_twi": 6.3424397493868794, "mean_spi": 0.082481368465160271, "prioridad": "media", "tipo": "dibujo_offset_drenaje_10m_v4", "criterio": "lineas a distancia horizontal regular desde drenajes; estilo grafico tipo paper; revisar contra curvas de nivel y campo", "priority_rank": 1 }, "geometry": { "type": "LineString", "coordinates": [ [ -85.5930503, 10.2955737 ], [ -85.5930476, 10.29552 ], [ -85.5929725, 10.2955103 ], [ -85.592896, 10.2955092 ], [ -85.5928202, 10.2954996 ], [ -85.5927502, 10.2954705 ], [ -85.5926909, 10.2954232 ], [ -85.5926436, 10.2953642 ], [ -85.5926112, 10.295296 ], [ -85.5925533, 10.2952547 ], [ -85.5924803, 10.2952355 ], [ -85.592404, 10.2952315 ], [ -85.5923281, 10.2952239 ], [ -85.5922533, 10.2952082 ], [ -85.5921864, 10.2951727 ], [ -85.5921273, 10.295125 ], [ -85.5920685, 10.2950817 ], [ -85.5919933, 10.2950761 ], [ -85.5919182, 10.2950666 ], [ -85.5918479, 10.2950384 ], [ -85.5917786, 10.2950075 ], [ -85.5917048, 10.2949886 ], [ -85.5916286, 10.2949815 ], [ -85.5915572, 10.2949565 ] ] } },
{ "type": "Feature", "properties": { "offset_m": 30.0, "length_m": 181.4437664785047, "mean_slope_pct": 1.2426180731166492, "mean_twi": 7.4425422960328911, "mean_spi": 0.4274326104581016, "prioridad": "media", "tipo": "dibujo_offset_drenaje_10m_v4", "criterio": "lineas a distancia horizontal regular desde drenajes; estilo grafico tipo paper; revisar contra curvas de nivel y campo", "priority_rank": 1 }, "geometry": { "type": "LineString", "coordinates": [ [ -85.5946358, 10.2958409 ], [ -85.5946897, 10.2957871 ], [ -85.594756, 10.2957499 ], [ -85.5947877, 10.2957027 ], [ -85.5947313, 10.2956539 ], [ -85.5946737, 10.295604 ], [ -85.5946261, 10.2955452 ], [ -85.5945988, 10.2954748 ], [ -85.5945915, 10.2953996 ], [ -85.5946062, 10.2953256 ], [ -85.5946414, 10.2952587 ], [ -85.5946936, 10.2952038 ], [ -85.594761, 10.2951698 ], [ -85.5948359, 10.2951557 ], [ -85.594912, 10.2951545 ], [ -85.5949862, 10.2951708 ], [ -85.5950547, 10.2952043 ], [ -85.5951157, 10.2952496 ], [ -85.5951823, 10.2952846 ], [ -85.5952553, 10.2953068 ], [ -85.5953303, 10.2953222 ], [ -85.5954012, 10.2953494 ], [ -85.5954699, 10.2953828 ] ] } },
{ "type": "Feature", "properties": { "offset_m": 30.0, "length_m": 174.62195521975204, "mean_slope_pct": 1.4575805798882531, "mean_twi": 5.8619345045515008, "mean_spi": 0.093422484037673684, "prioridad": "media", "tipo": "dibujo_offset_drenaje_10m_v4", "criterio": "lineas a distancia horizontal regular desde drenajes; estilo grafico tipo paper; revisar contra curvas de nivel y campo", "priority_rank": 1 }, "geometry": { "type": "LineString", "coordinates": [ [ -85.5959554, 10.2969874 ], [ -85.5959449, 10.2969628 ], [ -85.5959238, 10.2969136 ], [ -85.5959132, 10.2968626 ], [ -85.5959129, 10.2968097 ], [ -85.5959229, 10.2967588 ], [ -85.5959431, 10.2967098 ], [ -85.5959835, 10.2966602 ], [ -85.5960442, 10.29661 ], [ -85.596023, 10.2965671 ], [ -85.5959201, 10.2965315 ], [ -85.5958495, 10.2965261 ], [ -85.5958113, 10.2965507 ], [ -85.595766, 10.2965683 ], [ -85.5957136, 10.2965789 ], [ -85.5956003, 10.2965751 ], [ -85.595426, 10.2965569 ], [ -85.5953342, 10.2965697 ], [ -85.5953248, 10.2966136 ], [ -85.5953054, 10.2966576 ], [ -85.5952759, 10.2967017 ], [ -85.595239, 10.2967386 ], [ -85.5951948, 10.2967682 ], [ -85.5951425, 10.2967879 ], [ -85.5950823, 10.2967978 ], [ -85.5950522, 10.2968027 ] ] } },
{ "type": "Feature", "properties": { "offset_m": 30.0, "length_m": 161.63637112354152, "mean_slope_pct": 0.63982126489281654, "mean_twi": 6.8349121840532359, "mean_spi": 0.13461761683061382, "prioridad": "media", "tipo": "dibujo_offset_drenaje_10m_v4", "criterio": "lineas a distancia horizontal regular desde drenajes; estilo grafico tipo paper; revisar contra curvas de nivel y campo", "priority_rank": 1 }, "geometry": { "type": "LineString", "coordinates": [ [ -85.5903477, 10.294645 ], [ -85.5903427, 10.2946878 ], [ -85.5903327, 10.2947735 ], [ -85.5903027, 10.2948468 ], [ -85.5902526, 10.2949079 ], [ -85.5902029, 10.2949487 ], [ -85.5901536, 10.2949692 ], [ -85.5901023, 10.2949796 ], [ -85.5900489, 10.2949798 ], [ -85.589987, 10.2949616 ], [ -85.5899168, 10.2949248 ], [ -85.5898667, 10.2948845 ], [ -85.5898368, 10.2948407 ], [ -85.5898127, 10.2947561 ], [ -85.5897944, 10.2946308 ], [ -85.5897718, 10.2945323 ], [ -85.5897448, 10.2944607 ], [ -85.589731, 10.2943849 ], [ -85.5897306, 10.2943049 ], [ -85.5897404, 10.2942405 ], [ -85.5897604, 10.2941919 ], [ -85.5897704, 10.2941676 ] ] } },
{ "type": "Feature", "properties": { "offset_m": 30.0, "length_m": 154.3461484274649, "mean_slope_pct": 0.84599530853723226, "mean_twi": 6.1058194274684583, "mean_spi": 0.089420066103788914, "prioridad": "media", "tipo": "dibujo_offset_drenaje_10m_v4", "criterio": "lineas a distancia horizontal regular desde drenajes; estilo grafico tipo paper; revisar contra curvas de nivel y campo", "priority_rank": 1 }, "geometry": { "type": "LineString", "coordinates": [ [ -85.5913929, 10.2952537 ], [ -85.5914198, 10.2952481 ], [ -85.5914737, 10.2952367 ], [ -85.5915782, 10.2952306 ], [ -85.5917333, 10.2952298 ], [ -85.5918771, 10.2952475 ], [ -85.5920095, 10.2952837 ], [ -85.5921187, 10.295298 ], [ -85.5922049, 10.2952905 ], [ -85.5923248, 10.2953083 ], [ -85.5924785, 10.2953514 ], [ -85.5925776, 10.2953875 ], [ -85.5926221, 10.2954167 ], [ -85.5926627, 10.2954553 ], [ -85.5926991, 10.2955034 ], [ -85.5927174, 10.2955275 ] ] } },
{ "type": "Feature", "properties": { "offset_m": 30.0, "length_m": 149.9459636038502, "mean_slope_pct": 0.97496048195494545, "mean_twi": 6.3976768356791167, "mean_spi": 0.15500184966150668, "prioridad": "media", "tipo": "dibujo_offset_drenaje_10m_v4", "criterio": "lineas a distancia horizontal regular desde drenajes; estilo grafico tipo paper; revisar contra curvas de nivel y campo", "priority_rank": 1 }, "geometry": { "type": "LineString", "coordinates": [ [ -85.589388, 10.2956479 ], [ -85.5893924, 10.2956152 ], [ -85.5894011, 10.2955498 ], [ -85.5894338, 10.2954769 ], [ -85.5894905, 10.2953965 ], [ -85.5895537, 10.2953376 ], [ -85.5896237, 10.2953001 ], [ -85.5896853, 10.2952812 ], [ -85.5897387, 10.295281 ], [ -85.5897993, 10.2952953 ], [ -85.5898671, 10.2953243 ], [ -85.5899709, 10.2953875 ], [ -85.5901108, 10.295485 ], [ -85.5901996, 10.2955684 ], [ -85.5902374, 10.2956376 ], [ -85.5902571, 10.2957059 ], [ -85.5902587, 10.2957733 ], [ -85.5902595, 10.295807 ] ] } },
{ "type": "Feature", "properties": { "offset_m": 30.0, "length_m": 147.27577334827794, "mean_slope_pct": 1.3874711303247347, "mean_twi": 7.5757610002285407, "mean_spi": 0.53203182231541435, "prioridad": "media", "tipo": "dibujo_offset_drenaje_10m_v4", "criterio": "lineas a distancia horizontal regular desde drenajes; estilo grafico tipo paper; revisar contra curvas de nivel y campo", "priority_rank": 1 }, "geometry": { "type": "LineString", "coordinates": [ [ -85.5941982, 10.2949599 ], [ -85.5941877, 10.2949769 ], [ -85.5941666, 10.2950108 ], [ -85.5941662, 10.2950575 ], [ -85.5941864, 10.295117 ], [ -85.5941966, 10.2951732 ], [ -85.5941969, 10.2952261 ], [ -85.5941707, 10.2953377 ], [ -85.5941181, 10.295508 ], [ -85.5940813, 10.29561 ], [ -85.5940603, 10.2956439 ], [ -85.5941064, 10.2956855 ], [ -85.5942196, 10.2957349 ], [ -85.5943402, 10.2957696 ], [ -85.5944682, 10.2957897 ], [ -85.5945581, 10.29581 ], [ -85.5946099, 10.2958306 ], [ -85.5946358, 10.2958409 ] ] } },
{ "type": "Feature", "properties": { "offset_m": 30.0, "length_m": 138.23386423798252, "mean_slope_pct": 0.86156367685864954, "mean_twi": 7.5227887720693767, "mean_spi": 0.17644990579754907, "prioridad": "media", "tipo": "dibujo_offset_drenaje_10m_v4", "criterio": "lineas a distancia horizontal regular desde drenajes; estilo grafico tipo paper; revisar contra curvas de nivel y campo", "priority_rank": 1 }, "geometry": { "type": "LineString", "coordinates": [ [ -85.5939104, 10.2962219 ], [ -85.5938325, 10.2962196 ], [ -85.593762, 10.2962561 ], [ -85.5936868, 10.2962814 ], [ -85.5936078, 10.2962769 ], [ -85.5935327, 10.2962521 ], [ -85.5934729, 10.2962006 ], [ -85.5934255, 10.2961379 ], [ -85.5933991, 10.2960644 ], [ -85.593373, 10.2959943 ], [ -85.5933117, 10.2959458 ], [ -85.5932384, 10.2959152 ], [ -85.5931679, 10.2958791 ], [ -85.5931062, 10.2958305 ], [ -85.5930645, 10.2957641 ], [ -85.5930421, 10.2956888 ], [ -85.5930405, 10.2956102 ] ] } },
{ "type": "Feature", "properties": { "offset_m": 30.0, "length_m": 138.12569258875445, "mean_slope_pct": 1.2354302231003256, "mean_twi": 6.3042981592589324, "mean_spi": 0.33978906025037231, "prioridad": "media", "tipo": "dibujo_offset_drenaje_10m_v4", "criterio": "lineas a distancia horizontal regular desde drenajes; estilo grafico tipo paper; revisar contra curvas de nivel y campo", "priority_rank": 1 }, "geometry": { "type": "LineString", "coordinates": [ [ -85.5949679, 10.2967854 ], [ -85.5949056, 10.2967365 ], [ -85.5948523, 10.2966795 ], [ -85.5948192, 10.2966089 ], [ -85.5947863, 10.2965413 ], [ -85.5947208, 10.2964974 ], [ -85.5946427, 10.2964829 ], [ -85.5945661, 10.2964632 ], [ -85.5944925, 10.2964333 ], [ -85.5944292, 10.2963861 ], [ -85.5943583, 10.2963533 ], [ -85.594282, 10.2963321 ], [ -85.5942027, 10.2963271 ], [ -85.5941241, 10.2963179 ], [ -85.594048, 10.2962951 ], [ -85.593979, 10.2962578 ], [ -85.5939104, 10.2962219 ] ] } },
{ "type": "Feature", "properties": { "offset_m": 30.0, "length_m": 136.24640315827, "mean_slope_pct": 1.0904593853389515, "mean_twi": 6.3595884456467289, "mean_spi": 0.067419761137004153, "prioridad": "media", "tipo": "dibujo_offset_drenaje_10m_v4", "criterio": "lineas a distancia horizontal regular desde drenajes; estilo grafico tipo paper; revisar contra curvas de nivel y campo", "priority_rank": 1 }, "geometry": { "type": "LineString", "coordinates": [ [ -85.592728, 10.2955545 ], [ -85.5927321, 10.2955896 ], [ -85.5927402, 10.2956598 ], [ -85.5927313, 10.2957531 ], [ -85.5927056, 10.2958696 ], [ -85.5927604, 10.2959339 ], [ -85.5928956, 10.295946 ], [ -85.5930075, 10.2959749 ], [ -85.593096, 10.2960206 ], [ -85.5931627, 10.2960672 ], [ -85.5932073, 10.2961146 ], [ -85.59324, 10.2961627 ], [ -85.5932607, 10.2962115 ], [ -85.5932665, 10.2962856 ], [ -85.5932576, 10.296385 ], [ -85.5932532, 10.2964348 ] ] } },
{ "type": "Feature", "properties": { "offset_m": 30.0, "length_m": 102.96717079919088, "mean_slope_pct": 0.76008241126934684, "mean_twi": 6.2795777008085443, "mean_spi": 0.071429381468503195, "prioridad": "media", "tipo": "dibujo_offset_drenaje_10m_v4", "criterio": "lineas a distancia horizontal regular desde drenajes; estilo grafico tipo paper; revisar contra curvas de nivel y campo", "priority_rank": 1 }, "geometry": { "type": "LineString", "coordinates": [ [ -85.5906867, 10.295898 ], [ -85.5907055, 10.2958605 ], [ -85.5907432, 10.2957854 ], [ -85.5907985, 10.295729 ], [ -85.5908716, 10.2956912 ], [ -85.5909027, 10.2956309 ], [ -85.590892, 10.2955479 ], [ -85.5909052, 10.2954717 ], [ -85.5909423, 10.2954021 ], [ -85.5910012, 10.2953433 ], [ -85.5910819, 10.2952955 ], [ -85.591151, 10.2952662 ], [ -85.5912085, 10.2952556 ], [ -85.5912373, 10.2952503 ] ] } },
{ "type": "Feature", "properties": { "offset_m": 30.0, "length_m": 88.652833036382802, "mean_slope_pct": 1.7878427603705362, "mean_twi": 7.3038362907227841, "mean_spi": 0.69248554620787373, "prioridad": "media", "tipo": "dibujo_offset_drenaje_10m_v4", "criterio": "lineas a distancia horizontal regular desde drenajes; estilo grafico tipo paper; revisar contra curvas de nivel y campo", "priority_rank": 1 }, "geometry": { "type": "LineString", "coordinates": [ [ -85.5929004, 10.2947135 ], [ -85.5929373, 10.2947671 ], [ -85.5930113, 10.2948743 ], [ -85.593085, 10.294926 ], [ -85.5931585, 10.2949224 ], [ -85.5932375, 10.2949417 ], [ -85.5933218, 10.294984 ], [ -85.5933735, 10.295006 ], [ -85.5933924, 10.2950078 ], [ -85.5934021, 10.2949854 ], [ -85.5934025, 10.2949389 ], [ -85.5934123, 10.2948919 ], [ -85.5934317, 10.2948445 ], [ -85.5934414, 10.2948209 ] ] } },
{ "type": "Feature", "properties": { "offset_m": 30.0, "length_m": 85.099791738982432, "mean_slope_pct": 0.77945793867111202, "mean_twi": 8.0002571943058438, "mean_spi": 1.3163596802333091, "prioridad": "media", "tipo": "dibujo_offset_drenaje_10m_v4", "criterio": "lineas a distancia horizontal regular desde drenajes; estilo grafico tipo paper; revisar contra curvas de nivel y campo", "priority_rank": 1 }, "geometry": { "type": "LineString", "coordinates": [ [ -85.5916302, 10.2960995 ], [ -85.5916215, 10.2960675 ], [ -85.5916042, 10.2960036 ], [ -85.591602, 10.295929 ], [ -85.5916147, 10.2958436 ], [ -85.5915914, 10.2958153 ], [ -85.5915321, 10.295844 ], [ -85.5914494, 10.2958531 ], [ -85.5913435, 10.2958426 ], [ -85.5913074, 10.2958883 ], [ -85.5913413, 10.2959904 ], [ -85.5913583, 10.2960414 ] ] } },
{ "type": "Feature", "properties": { "offset_m": 30.0, "length_m": 63.479490612716091, "mean_slope_pct": 2.2834974697657993, "mean_twi": 5.5015818381255324, "mean_spi": 0.11132126456704258, "prioridad": "media", "tipo": "dibujo_offset_drenaje_10m_v4", "criterio": "lineas a distancia horizontal regular desde drenajes; estilo grafico tipo paper; revisar contra curvas de nivel y campo", "priority_rank": 1 }, "geometry": { "type": "LineString", "coordinates": [ [ -85.5967803, 10.2967053 ], [ -85.5967463, 10.2967055 ], [ -85.5966783, 10.2967058 ], [ -85.5966422, 10.2967591 ], [ -85.5966379, 10.2968652 ], [ -85.5966165, 10.2969449 ], [ -85.596578, 10.2969981 ], [ -85.5965323, 10.2970408 ], [ -85.5964794, 10.297073 ], [ -85.5964529, 10.2970892 ] ] } },
{ "type": "Feature", "properties": { "offset_m": 30.0, "length_m": 43.910325384453479, "mean_slope_pct": 0.88291530758142467, "mean_twi": 5.8886101934385744, "mean_spi": 0.049953594967504754, "prioridad": "media", "tipo": "dibujo_offset_drenaje_10m_v4", "criterio": "lineas a distancia horizontal regular desde drenajes; estilo grafico tipo paper; revisar contra curvas de nivel y campo", "priority_rank": 1 }, "geometry": { "type": "LineString", "coordinates": [ [ -85.5903275, 10.2942558 ], [ -85.5903232, 10.2942803 ], [ -85.5903147, 10.2943291 ], [ -85.5903242, 10.2943936 ], [ -85.5903516, 10.2944735 ], [ -85.5903609, 10.2945464 ], [ -85.5903521, 10.2946121 ], [ -85.5903477, 10.294645 ] ] } },
{ "type": "Feature", "properties": { "offset_m": 30.0, "length_m": 43.273720276369858, "mean_slope_pct": 1.3276357710361482, "mean_twi": 5.3094493304882349, "mean_spi": 0.038631777119096385, "prioridad": "media", "tipo": "dibujo_offset_drenaje_10m_v4", "criterio": "lineas a distancia horizontal regular desde drenajes; estilo grafico tipo paper; revisar contra curvas de nivel y campo", "priority_rank": 1 }, "geometry": { "type": "LineString", "coordinates": [ [ -85.5921772, 10.2962147 ], [ -85.5921688, 10.296159 ], [ -85.5921518, 10.2960476 ], [ -85.5921319, 10.2960239 ], [ -85.5921092, 10.2960879 ], [ -85.5920819, 10.2961362 ], [ -85.5920502, 10.296169 ], [ -85.5920343, 10.2961855 ] ] } },
{ "type": "Feature", "properties": { "offset_m": 40.0, "length_m": 205.28607053405565, "mean_slope_pct": 1.926575597524643, "mean_twi": 6.2848433443091594, "mean_spi": 0.22293082530936839, "prioridad": "media", "tipo": "dibujo_offset_drenaje_10m_v4", "criterio": "lineas a distancia horizontal regular desde drenajes; estilo grafico tipo paper; revisar contra curvas de nivel y campo", "priority_rank": 1 }, "geometry": { "type": "LineString", "coordinates": [ [ -85.5942906, 10.2949769 ], [ -85.5942819, 10.2949938 ], [ -85.5942645, 10.2950276 ], [ -85.5942633, 10.2950655 ], [ -85.5942784, 10.2951076 ], [ -85.5942861, 10.2951639 ], [ -85.5942864, 10.2952344 ], [ -85.5942598, 10.2953567 ], [ -85.5942061, 10.2955306 ], [ -85.594252, 10.2956393 ], [ -85.5943974, 10.2956827 ], [ -85.5945058, 10.2957107 ], [ -85.5945773, 10.2957234 ], [ -85.594621, 10.2957232 ], [ -85.5946369, 10.2957101 ], [ -85.5946145, 10.295666 ], [ -85.5945539, 10.2955908 ], [ -85.5945182, 10.2955011 ], [ -85.5945072, 10.2953967 ], [ -85.5945265, 10.2952981 ], [ -85.594576, 10.2952053 ], [ -85.5946364, 10.2951373 ], [ -85.5947075, 10.2950941 ], [ -85.5947431, 10.2950725 ] ] } },
{ "type": "Feature", "properties": { "offset_m": 40.0, "length_m": 198.38014295638555, "mean_slope_pct": 0.91055097159308696, "mean_twi": 7.3902809885475813, "mean_spi": 0.050001798694946455, "prioridad": "media", "tipo": "dibujo_offset_drenaje_10m_v4", "criterio": "lineas a distancia horizontal regular desde drenajes; estilo grafico tipo paper; revisar contra curvas de nivel y campo", "priority_rank": 1 }, "geometry": { "type": "LineString", "coordinates": [ [ -85.5947726, 10.2967455 ], [ -85.5947524, 10.2967019 ], [ -85.5947119, 10.2966146 ], [ -85.594641, 10.2965644 ], [ -85.5945396, 10.2965511 ], [ -85.5944487, 10.2965148 ], [ -85.5943683, 10.2964554 ], [ -85.5942541, 10.2964198 ], [ -85.5941059, 10.296408 ], [ -85.5939951, 10.2963758 ], [ -85.5939218, 10.2963233 ], [ -85.5938467, 10.2963152 ], [ -85.5937699, 10.2963517 ], [ -85.5936959, 10.2963701 ], [ -85.5936246, 10.2963705 ], [ -85.5935561, 10.2963573 ], [ -85.5934901, 10.2963307 ], [ -85.5934331, 10.296294 ], [ -85.5933851, 10.2962475 ], [ -85.5933568, 10.2962815 ], [ -85.5933481, 10.296396 ], [ -85.5933438, 10.2964533 ] ] } },
{ "type": "Feature", "properties": { "offset_m": 40.0, "length_m": 181.00667939964194, "mean_slope_pct": 1.4974090687253259, "mean_twi": 6.1832601774112925, "mean_spi": 0.11167536592813355, "prioridad": "media", "tipo": "dibujo_offset_drenaje_10m_v4", "criterio": "lineas a distancia horizontal regular desde drenajes; estilo grafico tipo paper; revisar contra curvas de nivel y campo", "priority_rank": 1 }, "geometry": { "type": "LineString", "coordinates": [ [ -85.5892949, 10.2956309 ], [ -85.5893014, 10.2955939 ], [ -85.5893145, 10.2955199 ], [ -85.5893542, 10.2954354 ], [ -85.5894207, 10.2953402 ], [ -85.5894834, 10.2952729 ], [ -85.5895425, 10.2952335 ], [ -85.5896247, 10.2952083 ], [ -85.5897301, 10.2951975 ], [ -85.5898249, 10.2952099 ], [ -85.5899091, 10.2952455 ], [ -85.5900247, 10.2953149 ], [ -85.5901715, 10.295418 ], [ -85.5902701, 10.2955157 ], [ -85.5903205, 10.295608 ], [ -85.5903466, 10.2956971 ], [ -85.5903482, 10.2957829 ], [ -85.590349, 10.2958258 ] ] } },
{ "type": "Feature", "properties": { "offset_m": 40.0, "length_m": 131.69166982722629, "mean_slope_pct": 0.82915132958441973, "mean_twi": 6.9524134048687616, "mean_spi": 0.1313997989168407, "prioridad": "media", "tipo": "dibujo_offset_drenaje_10m_v4", "criterio": "lineas a distancia horizontal regular desde drenajes; estilo grafico tipo paper; revisar contra curvas de nivel y campo", "priority_rank": 1 }, "geometry": { "type": "LineString", "coordinates": [ [ -85.591334, 10.2949602 ], [ -85.5912529, 10.2949638 ], [ -85.5911716, 10.2949635 ], [ -85.5910922, 10.2949477 ], [ -85.5910148, 10.2949331 ], [ -85.5909407, 10.2949618 ], [ -85.5908733, 10.2950069 ], [ -85.5907981, 10.2950372 ], [ -85.5907175, 10.295044 ], [ -85.5906373, 10.2950312 ], [ -85.5905593, 10.2950073 ], [ -85.5904885, 10.294967 ], [ -85.5904318, 10.2949091 ], [ -85.5903656, 10.2949226 ], [ -85.5903121, 10.2949834 ], [ -85.590246, 10.2950308 ] ] } },
{ "type": "Feature", "properties": { "offset_m": 40.0, "length_m": 131.65357547980386, "mean_slope_pct": 0.62528824992477894, "mean_twi": 8.1730031370332483, "mean_spi": 0.076719131088316156, "prioridad": "media", "tipo": "dibujo_offset_drenaje_10m_v4", "criterio": "lineas a distancia horizontal regular desde drenajes; estilo grafico tipo paper; revisar contra curvas de nivel y campo", "priority_rank": 1 }, "geometry": { "type": "LineString", "coordinates": [ [ -85.5910832, 10.2951902 ], [ -85.5911631, 10.2951734 ], [ -85.5912441, 10.2951646 ], [ -85.5913252, 10.2951713 ], [ -85.5914062, 10.2951623 ], [ -85.5914863, 10.2951475 ], [ -85.5915678, 10.2951414 ], [ -85.5916494, 10.2951403 ], [ -85.5917311, 10.2951402 ], [ -85.5917883, 10.295119 ], [ -85.5917147, 10.2950863 ], [ -85.5916346, 10.2950716 ], [ -85.5915547, 10.2950568 ], [ -85.5914795, 10.2950261 ], [ -85.5914135, 10.2949787 ], [ -85.591334, 10.2949602 ] ] } },
{ "type": "Feature", "properties": { "offset_m": 40.0, "length_m": 113.74990352978196, "mean_slope_pct": 1.5973388350435667, "mean_twi": 6.2114468567601504, "mean_spi": 0.21028692168463853, "prioridad": "media", "tipo": "dibujo_offset_drenaje_10m_v4", "criterio": "lineas a distancia horizontal regular desde drenajes; estilo grafico tipo paper; revisar contra curvas de nivel y campo", "priority_rank": 1 }, "geometry": { "type": "LineString", "coordinates": [ [ -85.5958417, 10.2969642 ], [ -85.5958371, 10.2969146 ], [ -85.5958278, 10.2968156 ], [ -85.5958379, 10.2967288 ], [ -85.5958674, 10.2966543 ], [ -85.5958336, 10.2966315 ], [ -85.5957365, 10.2966602 ], [ -85.5956193, 10.2966659 ], [ -85.5954822, 10.2966485 ], [ -85.595403, 10.2966629 ], [ -85.5953818, 10.2967092 ], [ -85.5953411, 10.2967601 ], [ -85.595281, 10.2968156 ], [ -85.5952509, 10.2968433 ] ] } },
{ "type": "Feature", "properties": { "offset_m": 40.0, "length_m": 110.16753020357038, "mean_slope_pct": 15.60239626811101, "mean_twi": 3.5132190740723912, "mean_spi": 0.69911274835698911, "prioridad": "media", "tipo": "dibujo_offset_drenaje_10m_v4", "criterio": "lineas a distancia horizontal regular desde drenajes; estilo grafico tipo paper; revisar contra curvas de nivel y campo", "priority_rank": 1 }, "geometry": { "type": "LineString", "coordinates": [ [ -85.5960275, 10.2955521 ], [ -85.5961107, 10.295544 ], [ -85.5961943, 10.2955442 ], [ -85.5962768, 10.2955579 ], [ -85.596356, 10.2955845 ], [ -85.5964274, 10.2956283 ], [ -85.5964827, 10.295691 ], [ -85.5965477, 10.2957434 ], [ -85.5966236, 10.2957786 ], [ -85.5966931, 10.2958248 ], [ -85.5967452, 10.2958895 ], [ -85.5967865, 10.2959619 ], [ -85.5968267, 10.2960349 ] ] } },
{ "type": "Feature", "properties": { "offset_m": 40.0, "length_m": 110.10367368424411, "mean_slope_pct": 1.3939857551684747, "mean_twi": 6.1809138034474342, "mean_spi": 0.067800312886618863, "prioridad": "media", "tipo": "dibujo_offset_drenaje_10m_v4", "criterio": "lineas a distancia horizontal regular desde drenajes; estilo grafico tipo paper; revisar contra curvas de nivel y campo", "priority_rank": 1 }, "geometry": { "type": "LineString", "coordinates": [ [ -85.5951263, 10.2951375 ], [ -85.5951929, 10.2951867 ], [ -85.5952722, 10.2952139 ], [ -85.595354, 10.2952331 ], [ -85.5954322, 10.2952621 ], [ -85.5955075, 10.2952989 ], [ -85.5955728, 10.2953513 ], [ -85.5956417, 10.2953984 ], [ -85.5957151, 10.2954388 ], [ -85.5957951, 10.2954642 ], [ -85.5958733, 10.2954945 ], [ -85.5959464, 10.2955349 ], [ -85.5960275, 10.2955521 ] ] } },
{ "type": "Feature", "properties": { "offset_m": 40.0, "length_m": 92.608574814173195, "mean_slope_pct": 0.87568911368196656, "mean_twi": 7.190646044558699, "mean_spi": 0.35893173945179457, "prioridad": "media", "tipo": "dibujo_offset_drenaje_10m_v4", "criterio": "lineas a distancia horizontal regular desde drenajes; estilo grafico tipo paper; revisar contra curvas de nivel y campo", "priority_rank": 1 }, "geometry": { "type": "LineString", "coordinates": [ [ -85.5905973, 10.2958789 ], [ -85.590611, 10.295844 ], [ -85.5906383, 10.2957742 ], [ -85.5906881, 10.2957083 ], [ -85.5907602, 10.2956464 ], [ -85.5907964, 10.2955839 ], [ -85.5907968, 10.2955208 ], [ -85.5908105, 10.2954566 ], [ -85.5908374, 10.2953913 ], [ -85.590876, 10.2953336 ], [ -85.5909261, 10.2952835 ], [ -85.5909741, 10.2952467 ], [ -85.5910201, 10.2952234 ], [ -85.5910431, 10.2952117 ] ] } },
{ "type": "Feature", "properties": { "offset_m": 40.0, "length_m": 89.194041911998397, "mean_slope_pct": 0.71288281679153442, "mean_twi": 6.825805063191182, "mean_spi": 0.051925284663132239, "prioridad": "media", "tipo": "dibujo_offset_drenaje_10m_v4", "criterio": "lineas a distancia horizontal regular desde drenajes; estilo grafico tipo paper; revisar contra curvas de nivel y campo", "priority_rank": 1 }, "geometry": { "type": "LineString", "coordinates": [ [ -85.5897823, 10.2949288 ], [ -85.5897659, 10.2948931 ], [ -85.589733, 10.2948217 ], [ -85.5897107, 10.2947343 ], [ -85.5896989, 10.2946307 ], [ -85.5896803, 10.2945449 ], [ -85.5896546, 10.2944769 ], [ -85.5896416, 10.2943941 ], [ -85.5896411, 10.2942965 ], [ -85.58965, 10.2942231 ], [ -85.5896682, 10.2941741 ], [ -85.5896774, 10.2941496 ] ] } },
{ "type": "Feature", "properties": { "offset_m": 40.0, "length_m": 42.260130789462345, "mean_slope_pct": 28.227268314361574, "mean_twi": 3.630163389277226, "mean_spi": 0.7201728907413264, "prioridad": "media", "tipo": "dibujo_offset_drenaje_10m_v4", "criterio": "lineas a distancia horizontal regular desde drenajes; estilo grafico tipo paper; revisar contra curvas de nivel y campo", "priority_rank": 1 }, "geometry": { "type": "LineString", "coordinates": [ [ -85.5930482, 10.294743 ], [ -85.5930596, 10.2947643 ], [ -85.5930822, 10.294807 ], [ -85.5931233, 10.2948292 ], [ -85.5931829, 10.2948309 ], [ -85.5932398, 10.2948418 ], [ -85.593294, 10.2948617 ], [ -85.5933279, 10.2948545 ], [ -85.5933414, 10.2948201 ], [ -85.5933482, 10.294803 ] ] } },
{ "type": "Feature", "properties": { "offset_m": 40.0, "length_m": 42.253352010118569, "mean_slope_pct": 2.4635344266891481, "mean_twi": 5.1071159263254646, "mean_spi": 0.093145240735350951, "prioridad": "media", "tipo": "dibujo_offset_drenaje_10m_v4", "criterio": "lineas a distancia horizontal regular desde drenajes; estilo grafico tipo paper; revisar contra curvas de nivel y campo", "priority_rank": 1 }, "geometry": { "type": "LineString", "coordinates": [ [ -85.5901949, 10.2950534 ], [ -85.5901474, 10.2950572 ], [ -85.5900523, 10.2950649 ], [ -85.5899606, 10.2950463 ], [ -85.5898722, 10.2950015 ], [ -85.589828, 10.2949792 ] ] } },
{ "type": "Feature", "properties": { "offset_m": 40.0, "length_m": 40.479628394601633, "mean_slope_pct": 2.1351965427398683, "mean_twi": 4.4838353075603585, "mean_spi": 0.054322926971810737, "prioridad": "media", "tipo": "dibujo_offset_drenaje_10m_v4", "criterio": "lineas a distancia horizontal regular desde drenajes; estilo grafico tipo paper; revisar contra curvas de nivel y campo", "priority_rank": 1 }, "geometry": { "type": "LineString", "coordinates": [ [ -85.5967473, 10.2967959 ], [ -85.5967405, 10.296835 ], [ -85.596727, 10.2969133 ], [ -85.5966874, 10.2969936 ], [ -85.5966216, 10.2970758 ], [ -85.5965887, 10.2971169 ] ] } },
{ "type": "Feature", "properties": { "offset_m": 50.0, "length_m": 164.17664474316621, "mean_slope_pct": 8.6899320960044868, "mean_twi": 5.0131326555306872, "mean_spi": 0.34714832466516632, "prioridad": "alta", "tipo": "dibujo_offset_drenaje_10m_v4", "criterio": "lineas a distancia horizontal regular desde drenajes; estilo grafico tipo paper; revisar contra curvas de nivel y campo", "priority_rank": 0 }, "geometry": { "type": "LineString", "coordinates": [ [ -85.5955595, 10.2952098 ], [ -85.5955976, 10.295243 ], [ -85.5956739, 10.2953095 ], [ -85.5957854, 10.2953721 ], [ -85.5959321, 10.2954308 ], [ -85.5960523, 10.2954558 ], [ -85.596146, 10.2954472 ], [ -85.5962365, 10.2954512 ], [ -85.5963239, 10.295468 ], [ -85.5964048, 10.2955007 ], [ -85.596479, 10.2955493 ], [ -85.5965332, 10.2955958 ], [ -85.5965674, 10.2956401 ], [ -85.5966141, 10.2956755 ], [ -85.5966736, 10.2957021 ], [ -85.5967394, 10.2957507 ], [ -85.5968116, 10.2958215 ], [ -85.5968478, 10.2958569 ] ] } },
{ "type": "Feature", "properties": { "offset_m": 50.0, "length_m": 86.131299346378171, "mean_slope_pct": 6.7468872249126433, "mean_twi": 5.3625820411554361, "mean_spi": 0.38230531006304191, "prioridad": "alta", "tipo": "dibujo_offset_drenaje_10m_v4", "criterio": "lineas a distancia horizontal regular desde drenajes; estilo grafico tipo paper; revisar contra curvas de nivel y campo", "priority_rank": 0 }, "geometry": { "type": "LineString", "coordinates": [ [ -85.5896582, 10.2948974 ], [ -85.5896295, 10.2947663 ], [ -85.589572, 10.294504 ], [ -85.5895535, 10.2943125 ], [ -85.589574, 10.2941918 ], [ -85.5895843, 10.2941315 ] ] } },
{ "type": "Feature", "properties": { "offset_m": 50.0, "length_m": 147.22504035831616, "mean_slope_pct": 1.0603328810797796, "mean_twi": 6.284901576288707, "mean_spi": 0.24441847678838446, "prioridad": "media", "tipo": "dibujo_offset_drenaje_10m_v4", "criterio": "lineas a distancia horizontal regular desde drenajes; estilo grafico tipo paper; revisar contra curvas de nivel y campo", "priority_rank": 1 }, "geometry": { "type": "LineString", "coordinates": [ [ -85.594653, 10.296721 ], [ -85.5946476, 10.2967062 ], [ -85.5946368, 10.2966765 ], [ -85.5945872, 10.2966533 ], [ -85.5944986, 10.2966365 ], [ -85.5944124, 10.2965992 ], [ -85.5943286, 10.2965412 ], [ -85.5942358, 10.2965119 ], [ -85.5941339, 10.2965114 ], [ -85.5940313, 10.2964859 ], [ -85.5939278, 10.2964357 ], [ -85.5938222, 10.2964248 ], [ -85.5937146, 10.2964533 ], [ -85.5936081, 10.2964545 ], [ -85.5935027, 10.2964284 ], [ -85.5934458, 10.2964293 ], [ -85.5934373, 10.2964575 ], [ -85.5934331, 10.2964715 ] ] } },
{ "type": "Feature", "properties": { "offset_m": 50.0, "length_m": 145.55575610588173, "mean_slope_pct": 0.86354275875621367, "mean_twi": 6.7092647557423586, "mean_spi": 0.15384181552562831, "prioridad": "media", "tipo": "dibujo_offset_drenaje_10m_v4", "criterio": "lineas a distancia horizontal regular desde drenajes; estilo grafico tipo paper; revisar contra curvas de nivel y campo", "priority_rank": 1 }, "geometry": { "type": "LineString", "coordinates": [ [ -85.5943814, 10.2949992 ], [ -85.5943751, 10.2950117 ], [ -85.5943624, 10.2950366 ], [ -85.5943611, 10.2951085 ], [ -85.5943712, 10.2952274 ], [ -85.5943553, 10.2953556 ], [ -85.5943134, 10.295493 ], [ -85.5943012, 10.2955663 ], [ -85.5943186, 10.2955754 ], [ -85.5943569, 10.2955849 ], [ -85.5944161, 10.2955947 ], [ -85.5944375, 10.2955756 ], [ -85.5944212, 10.2955276 ], [ -85.5944128, 10.2954596 ], [ -85.5944124, 10.2953714 ], [ -85.594429, 10.2952865 ], [ -85.5944627, 10.2952049 ], [ -85.5945085, 10.2951347 ], [ -85.5945665, 10.2950758 ], [ -85.5945955, 10.2950464 ] ] } },
{ "type": "Feature", "properties": { "offset_m": 50.0, "length_m": 125.43156686316613, "mean_slope_pct": 1.2912287245194116, "mean_twi": 7.3934550281422879, "mean_spi": 0.12432167033430884, "prioridad": "media", "tipo": "dibujo_offset_drenaje_10m_v4", "criterio": "lineas a distancia horizontal regular desde drenajes; estilo grafico tipo paper; revisar contra curvas de nivel y campo", "priority_rank": 1 }, "geometry": { "type": "LineString", "coordinates": [ [ -85.5897216, 10.2951037 ], [ -85.5898026, 10.2951127 ], [ -85.5898802, 10.2951372 ], [ -85.5899549, 10.2951703 ], [ -85.5900261, 10.2952104 ], [ -85.5900967, 10.2952515 ], [ -85.5901646, 10.2952967 ], [ -85.590231, 10.2953443 ], [ -85.5902907, 10.2953995 ], [ -85.5903446, 10.2954602 ], [ -85.5903893, 10.2955279 ], [ -85.5904194, 10.2956032 ], [ -85.5904349, 10.2956828 ], [ -85.5904371, 10.2957638 ], [ -85.5904384, 10.2958449 ] ] } },
{ "type": "Feature", "properties": { "offset_m": 50.0, "length_m": 88.087405243476724, "mean_slope_pct": 0.95033644681627105, "mean_twi": 6.2773652627029302, "mean_spi": 0.059521212448269738, "prioridad": "media", "tipo": "dibujo_offset_drenaje_10m_v4", "criterio": "lineas a distancia horizontal regular desde drenajes; estilo grafico tipo paper; revisar contra curvas de nivel y campo", "priority_rank": 1 }, "geometry": { "type": "LineString", "coordinates": [ [ -85.5905079, 10.2958598 ], [ -85.5905249, 10.2958172 ], [ -85.5905589, 10.295732 ], [ -85.5906068, 10.2956584 ], [ -85.5906687, 10.2955964 ], [ -85.5907016, 10.295542 ], [ -85.5907055, 10.2954954 ], [ -85.5907243, 10.2954313 ], [ -85.5907579, 10.2953497 ], [ -85.5908061, 10.2952775 ], [ -85.5908688, 10.2952148 ], [ -85.5909002, 10.2951834 ] ] } },
{ "type": "Feature", "properties": { "offset_m": 50.0, "length_m": 80.359063149436921, "mean_slope_pct": 1.1391706883907318, "mean_twi": 6.247669715824129, "mean_spi": 0.067949363948455924, "prioridad": "media", "tipo": "dibujo_offset_drenaje_10m_v4", "criterio": "lineas a distancia horizontal regular desde drenajes; estilo grafico tipo paper; revisar contra curvas de nivel y campo", "priority_rank": 1 }, "geometry": { "type": "LineString", "coordinates": [ [ -85.5903371, 10.2950822 ], [ -85.5902942, 10.2951008 ], [ -85.5902084, 10.2951379 ], [ -85.590121, 10.2951568 ], [ -85.590032, 10.2951572 ], [ -85.5899462, 10.2951407 ], [ -85.5898638, 10.2951074 ], [ -85.5897888, 10.2950557 ], [ -85.5897212, 10.2949857 ], [ -85.5896874, 10.2949507 ] ] } },
{ "type": "Feature", "properties": { "offset_m": 50.0, "length_m": 75.19109541191574, "mean_slope_pct": 0.78707372148831689, "mean_twi": 6.6555386929918008, "mean_spi": 0.11837104540981451, "prioridad": "media", "tipo": "dibujo_offset_drenaje_10m_v4", "criterio": "lineas a distancia horizontal regular desde drenajes; estilo grafico tipo paper; revisar contra curvas de nivel y campo", "priority_rank": 1 }, "geometry": { "type": "LineString", "coordinates": [ [ -85.590939, 10.2951627 ], [ -85.5909671, 10.2951482 ], [ -85.5910234, 10.2951193 ], [ -85.5910952, 10.2950961 ], [ -85.5911824, 10.2950784 ], [ -85.5911754, 10.2950576 ], [ -85.5910743, 10.2950337 ], [ -85.5909902, 10.2950436 ], [ -85.5909232, 10.2950873 ], [ -85.5908667, 10.2951159 ], [ -85.5908206, 10.2951293 ], [ -85.5907975, 10.295136 ] ] } },
{ "type": "Feature", "properties": { "offset_m": 50.0, "length_m": 63.425982903881156, "mean_slope_pct": 1.7230303968702043, "mean_twi": 5.5672703443254639, "mean_spi": 0.12302495804568933, "prioridad": "media", "tipo": "dibujo_offset_drenaje_10m_v4", "criterio": "lineas a distancia horizontal regular desde drenajes; estilo grafico tipo paper; revisar contra curvas de nivel y campo", "priority_rank": 1 }, "geometry": { "type": "LineString", "coordinates": [ [ -85.5957401, 10.2969434 ], [ -85.5957382, 10.2968976 ], [ -85.5957344, 10.2968062 ], [ -85.5956682, 10.2967528 ], [ -85.5955395, 10.2967375 ], [ -85.595449, 10.2967643 ], [ -85.5953966, 10.2968333 ], [ -85.5953704, 10.2968678 ] ] } },
{ "type": "Feature", "properties": { "offset_m": 60.0, "length_m": 140.38069081597683, "mean_slope_pct": 8.8943039880079375, "mean_twi": 5.0776402068559436, "mean_spi": 0.38995168187483736, "prioridad": "alta", "tipo": "dibujo_offset_drenaje_10m_v4", "criterio": "lineas a distancia horizontal regular desde drenajes; estilo grafico tipo paper; revisar contra curvas de nivel y campo", "priority_rank": 0 }, "geometry": { "type": "LineString", "coordinates": [ [ -85.5957271, 10.2952304 ], [ -85.5958009, 10.2952635 ], [ -85.5959484, 10.2953297 ], [ -85.5960647, 10.2953602 ], [ -85.5961498, 10.295355 ], [ -85.5962448, 10.2953625 ], [ -85.5963497, 10.2953827 ], [ -85.5964259, 10.2954051 ], [ -85.5964733, 10.2954299 ], [ -85.596534, 10.2954783 ], [ -85.5966078, 10.2955502 ], [ -85.5966719, 10.2955996 ], [ -85.5967264, 10.2956265 ], [ -85.5967808, 10.2956633 ], [ -85.5968352, 10.29571 ], [ -85.5968623, 10.2957334 ] ] } },
{ "type": "Feature", "properties": { "offset_m": 60.0, "length_m": 61.251798325764888, "mean_slope_pct": 1.3897035292216711, "mean_twi": 6.5338199262251138, "mean_spi": 0.30950515872996009, "prioridad": "media", "tipo": "dibujo_offset_drenaje_10m_v4", "criterio": "lineas a distancia horizontal regular desde drenajes; estilo grafico tipo paper; revisar contra curvas de nivel y campo", "priority_rank": 1 }, "geometry": { "type": "LineString", "coordinates": [ [ -85.5943112, 10.2966511 ], [ -85.5942959, 10.2966388 ], [ -85.5942652, 10.2966141 ], [ -85.5942038, 10.2966013 ], [ -85.5941117, 10.2966003 ], [ -85.5940155, 10.2965792 ], [ -85.5939151, 10.296538 ], [ -85.5938441, 10.2965238 ], [ -85.5938025, 10.2965365 ], [ -85.5937817, 10.2965429 ] ] } },
{ "type": "Feature", "properties": { "offset_m": 70.0, "length_m": 43.474735640512897, "mean_slope_pct": 9.8964631080627434, "mean_twi": 4.9534473059543824, "mean_spi": 1.1691778572293856, "prioridad": "media", "tipo": "dibujo_offset_drenaje_10m_v4", "criterio": "lineas a distancia horizontal regular desde drenajes; estilo grafico tipo paper; revisar contra curvas de nivel y campo", "priority_rank": 1 }, "geometry": { "type": "LineString", "coordinates": [ [ -85.5965643, 10.2953806 ], [ -85.5965978, 10.2954128 ], [ -85.5966648, 10.2954771 ], [ -85.5967426, 10.2955375 ], [ -85.5968312, 10.2955939 ], [ -85.5968755, 10.2956221 ] ] } }
]
}
