{
"type": "FeatureCollection",
"name": "fotos_puntos",
"crs": { "type": "name", "properties": { "name": "urn:ogc:def:crs:OGC:1.3:CRS84" } },
"xy_coordinate_resolution": 1e-07,
"features": [
{ "type": "Feature", "properties": { "Foto": "Banco_forraje" }, "geometry": { "type": "Point", "coordinates": [ -85.5886697, 10.2944733 ] } },
{ "type": "Feature", "properties": { "Foto": "videoinunda" }, "geometry": { "type": "Point", "coordinates": [ -85.5878836, 10.2953314 ] } },
{ "type": "Feature", "properties": { "Foto": "silo" }, "geometry": { "type": "Point", "coordinates": [ -85.5882294, 10.2949583 ] } },
{ "type": "Feature", "properties": { "Foto": "potrerosseco" }, "geometry": { "type": "Point", "coordinates": [ -85.5915576, 10.2955254 ] } },
{ "type": "Feature", "properties": { "Foto": "potrerosverde" }, "geometry": { "type": "Point", "coordinates": [ -85.5938958, 10.2959931 ] } }
]
}
