{
"type": "FeatureCollection",
"name": "ssp_distribucion",
"crs": { "type": "name", "properties": { "name": "urn:ogc:def:crs:OGC:1.3:CRS84" } },
"xy_coordinate_resolution": 1e-07,
"features": [
{ "type": "Feature", "properties": { "id": 1, "src_fid": 1, "plantar": 1, "cod_sp": "Ecyc", "especie": "Enterolobium cyclocarpum", "dist_min_m": 30.0, "grupo_dist": "30m", "sistema": "cerca_viva_mixta", "orden_rand": 91, "dist_vec_m": 18.43, "dist_30_m": 38.5, "cumple": 1, "seed": 42, "obs": "ok" }, "geometry": { "type": "Point", "coordinates": [ -85.5893396, 10.2950265 ] } },
{ "type": "Feature", "properties": { "id": 2, "src_fid": 2, "plantar": 1, "cod_sp": "Gulm", "especie": "Guazuma ulmifolia", "dist_min_m": 5.0, "grupo_dist": "5m", "sistema": "cerca_viva_mixta", "orden_rand": 28, "dist_vec_m": 17.84, "dist_30_m": null, "cumple": 1, "seed": 42, "obs": "ok" }, "geometry": { "type": "Point", "coordinates": [ -85.5893203, 10.2951919 ] } },
{ "type": "Feature", "properties": { "id": 3, "src_fid": 3, "plantar": 1, "cod_sp": "Pjul", "especie": "Prosopis juliflora", "dist_min_m": 5.0, "grupo_dist": "5m", "sistema": "cerca_viva_mixta", "orden_rand": 22, "dist_vec_m": 17.46, "dist_30_m": null, "cumple": 1, "seed": 42, "obs": "ok" }, "geometry": { "type": "Point", "coordinates": [ -85.5892996, 10.2953519 ] } },
{ "type": "Feature", "properties": { "id": 4, "src_fid": 4, "plantar": 1, "cod_sp": "Gsep", "especie": "Gliricidia sepium", "dist_min_m": 5.0, "grupo_dist": "5m", "sistema": "cerca_viva_mixta", "orden_rand": 124, "dist_vec_m": 17.46, "dist_30_m": null, "cumple": 1, "seed": 42, "obs": "ok" }, "geometry": { "type": "Point", "coordinates": [ -85.5892859, 10.295509 ] } },
{ "type": "Feature", "properties": { "id": 6, "src_fid": 5, "plantar": 1, "cod_sp": "Ssam", "especie": "Samanea saman", "dist_min_m": 30.0, "grupo_dist": "30m", "sistema": "cerca_viva_mixta", "orden_rand": 110, "dist_vec_m": 15.06, "dist_30_m": 36.86, "cumple": 1, "seed": 42, "obs": "ok" }, "geometry": { "type": "Point", "coordinates": [ -85.5892693, 10.2956855 ] } },
{ "type": "Feature", "properties": { "id": 7, "src_fid": 6, "plantar": 1, "cod_sp": "Gsep", "especie": "Gliricidia sepium", "dist_min_m": 5.0, "grupo_dist": "5m", "sistema": "cerca_viva_mixta", "orden_rand": 76, "dist_vec_m": 15.06, "dist_30_m": null, "cumple": 1, "seed": 42, "obs": "ok" }, "geometry": { "type": "Point", "coordinates": [ -85.5894044, 10.2957103 ] } },
{ "type": "Feature", "properties": { "id": 8, "src_fid": 7, "plantar": 1, "cod_sp": "Gulm", "especie": "Guazuma ulmifolia", "dist_min_m": 5.0, "grupo_dist": "5m", "sistema": "cerca_viva_mixta", "orden_rand": 59, "dist_vec_m": 16.0, "dist_30_m": null, "cumple": 1, "seed": 42, "obs": "ok" }, "geometry": { "type": "Point", "coordinates": [ -85.5895478, 10.2957379 ] } },
{ "type": "Feature", "properties": { "id": 9, "src_fid": 8, "plantar": 1, "cod_sp": "Ecyc", "especie": "Enterolobium cyclocarpum", "dist_min_m": 30.0, "grupo_dist": "30m", "sistema": "cerca_viva_mixta", "orden_rand": 27, "dist_vec_m": 18.36, "dist_30_m": 36.86, "cumple": 1, "seed": 42, "obs": "ok" }, "geometry": { "type": "Point", "coordinates": [ -85.5895837, 10.2955669 ] } },
{ "type": "Feature", "properties": { "id": 10, "src_fid": 9, "plantar": 1, "cod_sp": "Gsep", "especie": "Gliricidia sepium", "dist_min_m": 5.0, "grupo_dist": "5m", "sistema": "cerca_viva_mixta", "orden_rand": 67, "dist_vec_m": 16.21, "dist_30_m": null, "cumple": 1, "seed": 42, "obs": "ok" }, "geometry": { "type": "Point", "coordinates": [ -85.5896168, 10.2954043 ] } },
{ "type": "Feature", "properties": { "id": 12, "src_fid": 10, "plantar": 1, "cod_sp": "Gulm", "especie": "Guazuma ulmifolia", "dist_min_m": 5.0, "grupo_dist": "5m", "sistema": "cerca_viva_mixta", "orden_rand": 1, "dist_vec_m": 14.65, "dist_30_m": null, "cumple": 1, "seed": 42, "obs": "ok" }, "geometry": { "type": "Point", "coordinates": [ -85.5896471, 10.2952609 ] } },
{ "type": "Feature", "properties": { "id": 13, "src_fid": 11, "plantar": 1, "cod_sp": "Ssam", "especie": "Samanea saman", "dist_min_m": 30.0, "grupo_dist": "30m", "sistema": "cerca_viva_mixta", "orden_rand": 71, "dist_vec_m": 14.65, "dist_30_m": 32.01, "cumple": 1, "seed": 42, "obs": "ok" }, "geometry": { "type": "Point", "coordinates": [ -85.5896747, 10.2951313 ] } },
{ "type": "Feature", "properties": { "id": 17, "src_fid": 15, "plantar": 1, "cod_sp": "Ssam", "especie": "Samanea saman", "dist_min_m": 30.0, "grupo_dist": "30m", "sistema": "cerca_viva_mixta", "orden_rand": 113, "dist_vec_m": 17.7, "dist_30_m": 32.01, "cumple": 1, "seed": 42, "obs": "ok" }, "geometry": { "type": "Point", "coordinates": [ -85.5899614, 10.2951864 ] } },
{ "type": "Feature", "properties": { "id": 18, "src_fid": 16, "plantar": 1, "cod_sp": "Pjul", "especie": "Prosopis juliflora", "dist_min_m": 5.0, "grupo_dist": "5m", "sistema": "cerca_viva_mixta", "orden_rand": 80, "dist_vec_m": 16.57, "dist_30_m": null, "cumple": 1, "seed": 42, "obs": "ok" }, "geometry": { "type": "Point", "coordinates": [ -85.5899311, 10.2953436 ] } },
{ "type": "Feature", "properties": { "id": 19, "src_fid": 17, "plantar": 1, "cod_sp": "Pjul", "especie": "Prosopis juliflora", "dist_min_m": 5.0, "grupo_dist": "5m", "sistema": "cerca_viva_mixta", "orden_rand": 117, "dist_vec_m": 16.57, "dist_30_m": null, "cumple": 1, "seed": 42, "obs": "ok" }, "geometry": { "type": "Point", "coordinates": [ -85.5899146, 10.2954925 ] } },
{ "type": "Feature", "properties": { "id": 19, "src_fid": 18, "plantar": 1, "cod_sp": "Gsep", "especie": "Gliricidia sepium", "dist_min_m": 5.0, "grupo_dist": "5m", "sistema": "cerca_viva_mixta", "orden_rand": 125, "dist_vec_m": 16.65, "dist_30_m": null, "cumple": 1, "seed": 42, "obs": "ok" }, "geometry": { "type": "Point", "coordinates": [ -85.5898897, 10.2956497 ] } },
{ "type": "Feature", "properties": { "id": 20, "src_fid": 19, "plantar": 1, "cod_sp": "Ssam", "especie": "Samanea saman", "dist_min_m": 30.0, "grupo_dist": "30m", "sistema": "cerca_viva_mixta", "orden_rand": 73, "dist_vec_m": 15.26, "dist_30_m": 40.31, "cumple": 1, "seed": 42, "obs": "ok" }, "geometry": { "type": "Point", "coordinates": [ -85.5898677, 10.2957986 ] } },
{ "type": "Feature", "properties": { "id": 21, "src_fid": 20, "plantar": 1, "cod_sp": "Gsep", "especie": "Gliricidia sepium", "dist_min_m": 5.0, "grupo_dist": "5m", "sistema": "cerca_viva_mixta", "orden_rand": 6, "dist_vec_m": 15.26, "dist_30_m": null, "cumple": 1, "seed": 42, "obs": "ok" }, "geometry": { "type": "Point", "coordinates": [ -85.5900056, 10.2958179 ] } },
{ "type": "Feature", "properties": { "id": 22, "src_fid": 21, "plantar": 1, "cod_sp": "Pjul", "especie": "Prosopis juliflora", "dist_min_m": 5.0, "grupo_dist": "5m", "sistema": "cerca_viva_mixta", "orden_rand": 119, "dist_vec_m": 15.62, "dist_30_m": null, "cumple": 1, "seed": 42, "obs": "ok" }, "geometry": { "type": "Point", "coordinates": [ -85.5901517, 10.2958482 ] } },
{ "type": "Feature", "properties": { "id": 23, "src_fid": 22, "plantar": 1, "cod_sp": "Gulm", "especie": "Guazuma ulmifolia", "dist_min_m": 5.0, "grupo_dist": "5m", "sistema": "cerca_viva_mixta", "orden_rand": 20, "dist_vec_m": 16.95, "dist_30_m": null, "cumple": 1, "seed": 42, "obs": "ok" }, "geometry": { "type": "Point", "coordinates": [ -85.5901738, 10.2956965 ] } },
{ "type": "Feature", "properties": { "id": 26, "src_fid": 25, "plantar": 1, "cod_sp": "Pjul", "especie": "Prosopis juliflora", "dist_min_m": 5.0, "grupo_dist": "5m", "sistema": "cerca_viva_mixta", "orden_rand": 86, "dist_vec_m": 31.24, "dist_30_m": null, "cumple": 1, "seed": 42, "obs": "ok" }, "geometry": { "type": "Point", "coordinates": [ -85.5902372, 10.2952581 ] } },
{ "type": "Feature", "properties": { "id": 29, "src_fid": 29, "plantar": 1, "cod_sp": "Pjul", "especie": "Prosopis juliflora", "dist_min_m": 5.0, "grupo_dist": "5m", "sistema": "cerca_viva_mixta", "orden_rand": 90, "dist_vec_m": 16.87, "dist_30_m": null, "cumple": 1, "seed": 42, "obs": "ok" }, "geometry": { "type": "Point", "coordinates": [ -85.590546, 10.2953188 ] } },
{ "type": "Feature", "properties": { "id": 30, "src_fid": 30, "plantar": 1, "cod_sp": "Pjul", "especie": "Prosopis juliflora", "dist_min_m": 5.0, "grupo_dist": "5m", "sistema": "cerca_viva_mixta", "orden_rand": 12, "dist_vec_m": 15.49, "dist_30_m": null, "cumple": 1, "seed": 42, "obs": "ok" }, "geometry": { "type": "Point", "coordinates": [ -85.5905129, 10.2954677 ] } },
{ "type": "Feature", "properties": { "id": 31, "src_fid": 31, "plantar": 1, "cod_sp": "Pjul", "especie": "Prosopis juliflora", "dist_min_m": 5.0, "grupo_dist": "5m", "sistema": "cerca_viva_mixta", "orden_rand": 50, "dist_vec_m": 15.49, "dist_30_m": null, "cumple": 1, "seed": 42, "obs": "ok" }, "geometry": { "type": "Point", "coordinates": [ -85.5904881, 10.2956056 ] } },
{ "type": "Feature", "properties": { "id": 32, "src_fid": 32, "plantar": 1, "cod_sp": "Gsep", "especie": "Gliricidia sepium", "dist_min_m": 5.0, "grupo_dist": "5m", "sistema": "cerca_viva_mixta", "orden_rand": 53, "dist_vec_m": 16.4, "dist_30_m": null, "cumple": 1, "seed": 42, "obs": "ok" }, "geometry": { "type": "Point", "coordinates": [ -85.5904633, 10.2957517 ] } },
{ "type": "Feature", "properties": { "id": 33, "src_fid": 33, "plantar": 1, "cod_sp": "Pjul", "especie": "Prosopis juliflora", "dist_min_m": 5.0, "grupo_dist": "5m", "sistema": "cerca_viva_mixta", "orden_rand": 68, "dist_vec_m": 14.71, "dist_30_m": null, "cumple": 1, "seed": 42, "obs": "ok" }, "geometry": { "type": "Point", "coordinates": [ -85.590433, 10.2959089 ] } },
{ "type": "Feature", "properties": { "id": 34, "src_fid": 34, "plantar": 1, "cod_sp": "Ssam", "especie": "Samanea saman", "dist_min_m": 30.0, "grupo_dist": "30m", "sistema": "cerca_viva_mixta", "orden_rand": 101, "dist_vec_m": 15.62, "dist_30_m": 47.18, "cumple": 1, "seed": 42, "obs": "ok" }, "geometry": { "type": "Point", "coordinates": [ -85.5902896, 10.2958841 ] } },
{ "type": "Feature", "properties": { "id": 35, "src_fid": 35, "plantar": 1, "cod_sp": "Gulm", "especie": "Guazuma ulmifolia", "dist_min_m": 5.0, "grupo_dist": "5m", "sistema": "cerca_viva_mixta", "orden_rand": 31, "dist_vec_m": 14.71, "dist_30_m": null, "cumple": 1, "seed": 42, "obs": "ok" }, "geometry": { "type": "Point", "coordinates": [ -85.5905653, 10.2959309 ] } },
{ "type": "Feature", "properties": { "id": 37, "src_fid": 36, "plantar": 1, "cod_sp": "Pjul", "especie": "Prosopis juliflora", "dist_min_m": 5.0, "grupo_dist": "5m", "sistema": "cerca_viva_mixta", "orden_rand": 107, "dist_vec_m": 15.3, "dist_30_m": null, "cumple": 1, "seed": 42, "obs": "ok" }, "geometry": { "type": "Point", "coordinates": [ -85.5906977, 10.2959751 ] } },
{ "type": "Feature", "properties": { "id": 38, "src_fid": 37, "plantar": 1, "cod_sp": "Ecyc", "especie": "Enterolobium cyclocarpum", "dist_min_m": 30.0, "grupo_dist": "30m", "sistema": "cerca_viva_mixta", "orden_rand": 120, "dist_vec_m": 15.55, "dist_30_m": 32.49, "cumple": 1, "seed": 42, "obs": "ok" }, "geometry": { "type": "Point", "coordinates": [ -85.5907418, 10.2958206 ] } },
{ "type": "Feature", "properties": { "id": 39, "src_fid": 38, "plantar": 1, "cod_sp": "Gsep", "especie": "Gliricidia sepium", "dist_min_m": 5.0, "grupo_dist": "5m", "sistema": "cerca_viva_mixta", "orden_rand": 106, "dist_vec_m": 15.55, "dist_30_m": null, "cumple": 1, "seed": 42, "obs": "ok" }, "geometry": { "type": "Point", "coordinates": [ -85.5907694, 10.2956828 ] } },
{ "type": "Feature", "properties": { "id": 40, "src_fid": 39, "plantar": 1, "cod_sp": "Ssam", "especie": "Samanea saman", "dist_min_m": 30.0, "grupo_dist": "30m", "sistema": "cerca_viva_mixta", "orden_rand": 13, "dist_vec_m": 17.38, "dist_30_m": 33.51, "cumple": 1, "seed": 42, "obs": "ok" }, "geometry": { "type": "Point", "coordinates": [ -85.5908107, 10.2955256 ] } },
{ "type": "Feature", "properties": { "id": 41, "src_fid": 40, "plantar": 1, "cod_sp": "Gsep", "especie": "Gliricidia sepium", "dist_min_m": 5.0, "grupo_dist": "5m", "sistema": "cerca_viva_mixta", "orden_rand": 121, "dist_vec_m": 17.38, "dist_30_m": null, "cumple": 1, "seed": 42, "obs": "ok" }, "geometry": { "type": "Point", "coordinates": [ -85.5908521, 10.2953739 ] } },
{ "type": "Feature", "properties": { "id": 45, "src_fid": 44, "plantar": 1, "cod_sp": "Ssam", "especie": "Samanea saman", "dist_min_m": 30.0, "grupo_dist": "30m", "sistema": "cerca_viva_mixta", "orden_rand": 15, "dist_vec_m": 16.79, "dist_30_m": 38.93, "cumple": 1, "seed": 42, "obs": "ok" }, "geometry": { "type": "Point", "coordinates": [ -85.5911499, 10.2954208 ] } },
{ "type": "Feature", "properties": { "id": 46, "src_fid": 45, "plantar": 1, "cod_sp": "Gsep", "especie": "Gliricidia sepium", "dist_min_m": 5.0, "grupo_dist": "5m", "sistema": "cerca_viva_mixta", "orden_rand": 77, "dist_vec_m": 16.79, "dist_30_m": null, "cumple": 1, "seed": 42, "obs": "ok" }, "geometry": { "type": "Point", "coordinates": [ -85.5911086, 10.2955669 ] } },
{ "type": "Feature", "properties": { "id": 47, "src_fid": 46, "plantar": 1, "cod_sp": "Gulm", "especie": "Guazuma ulmifolia", "dist_min_m": 5.0, "grupo_dist": "5m", "sistema": "cerca_viva_mixta", "orden_rand": 39, "dist_vec_m": 17.68, "dist_30_m": null, "cumple": 1, "seed": 42, "obs": "ok" }, "geometry": { "type": "Point", "coordinates": [ -85.5910727, 10.2957296 ] } },
{ "type": "Feature", "properties": { "id": 48, "src_fid": 47, "plantar": 1, "cod_sp": "Ecyc", "especie": "Enterolobium cyclocarpum", "dist_min_m": 30.0, "grupo_dist": "30m", "sistema": "cerca_viva_mixta", "orden_rand": 122, "dist_vec_m": 15.98, "dist_30_m": 32.49, "cumple": 1, "seed": 42, "obs": "ok" }, "geometry": { "type": "Point", "coordinates": [ -85.5910313, 10.2958841 ] } },
{ "type": "Feature", "properties": { "id": 49, "src_fid": 48, "plantar": 1, "cod_sp": "Gulm", "especie": "Guazuma ulmifolia", "dist_min_m": 5.0, "grupo_dist": "5m", "sistema": "cerca_viva_mixta", "orden_rand": 25, "dist_vec_m": 15.98, "dist_30_m": null, "cumple": 1, "seed": 42, "obs": "ok" }, "geometry": { "type": "Point", "coordinates": [ -85.5909983, 10.2960247 ] } },
{ "type": "Feature", "properties": { "id": 1, "src_fid": 49, "plantar": 1, "cod_sp": "Gulm", "especie": "Guazuma ulmifolia", "dist_min_m": 5.0, "grupo_dist": "5m", "sistema": "cerca_viva_mixta", "orden_rand": 70, "dist_vec_m": 15.82, "dist_30_m": null, "cumple": 1, "seed": 42, "obs": "ok" }, "geometry": { "type": "Point", "coordinates": [ -85.5911554, 10.2960633 ] } },
{ "type": "Feature", "properties": { "id": 1, "src_fid": 50, "plantar": 1, "cod_sp": "Pjul", "especie": "Prosopis juliflora", "dist_min_m": 5.0, "grupo_dist": "5m", "sistema": "cerca_viva_mixta", "orden_rand": 42, "dist_vec_m": 15.82, "dist_30_m": null, "cumple": 1, "seed": 42, "obs": "ok" }, "geometry": { "type": "Point", "coordinates": [ -85.5912988, 10.2960798 ] } },
{ "type": "Feature", "properties": { "id": 1, "src_fid": 51, "plantar": 1, "cod_sp": "Ssam", "especie": "Samanea saman", "dist_min_m": 30.0, "grupo_dist": "30m", "sistema": "cerca_viva_mixta", "orden_rand": 37, "dist_vec_m": 12.94, "dist_30_m": 35.67, "cumple": 1, "seed": 42, "obs": "ok" }, "geometry": { "type": "Point", "coordinates": [ -85.5914863, 10.296135 ] } },
{ "type": "Feature", "properties": { "id": 1, "src_fid": 52, "plantar": 1, "cod_sp": "Pjul", "especie": "Prosopis juliflora", "dist_min_m": 5.0, "grupo_dist": "5m", "sistema": "cerca_viva_mixta", "orden_rand": 55, "dist_vec_m": 12.94, "dist_30_m": null, "cumple": 1, "seed": 42, "obs": "ok" }, "geometry": { "type": "Point", "coordinates": [ -85.5916033, 10.2961511 ] } },
{ "type": "Feature", "properties": { "id": 1, "src_fid": 53, "plantar": 1, "cod_sp": "Pjul", "especie": "Prosopis juliflora", "dist_min_m": 5.0, "grupo_dist": "5m", "sistema": "cerca_viva_mixta", "orden_rand": 44, "dist_vec_m": 13.17, "dist_30_m": null, "cumple": 1, "seed": 42, "obs": "ok" }, "geometry": { "type": "Point", "coordinates": [ -85.5917213, 10.2961738 ] } },
{ "type": "Feature", "properties": { "id": 1, "src_fid": 54, "plantar": 1, "cod_sp": "Gsep", "especie": "Gliricidia sepium", "dist_min_m": 5.0, "grupo_dist": "5m", "sistema": "cerca_viva_mixta", "orden_rand": 48, "dist_vec_m": 15.32, "dist_30_m": null, "cumple": 1, "seed": 42, "obs": "ok" }, "geometry": { "type": "Point", "coordinates": [ -85.5918574, 10.2962055 ] } },
{ "type": "Feature", "properties": { "id": 1, "src_fid": 55, "plantar": 1, "cod_sp": "Ssam", "especie": "Samanea saman", "dist_min_m": 30.0, "grupo_dist": "30m", "sistema": "cerca_viva_mixta", "orden_rand": 88, "dist_vec_m": 15.7, "dist_30_m": 46.62, "cumple": 1, "seed": 42, "obs": "ok" }, "geometry": { "type": "Point", "coordinates": [ -85.5920026, 10.2962418 ] } },
{ "type": "Feature", "properties": { "id": 1, "src_fid": 56, "plantar": 1, "cod_sp": "Gsep", "especie": "Gliricidia sepium", "dist_min_m": 5.0, "grupo_dist": "5m", "sistema": "cerca_viva_mixta", "orden_rand": 78, "dist_vec_m": 14.24, "dist_30_m": null, "cumple": 1, "seed": 42, "obs": "ok" }, "geometry": { "type": "Point", "coordinates": [ -85.5921433, 10.2962691 ] } },
{ "type": "Feature", "properties": { "id": 1, "src_fid": 57, "plantar": 1, "cod_sp": "Gsep", "especie": "Gliricidia sepium", "dist_min_m": 5.0, "grupo_dist": "5m", "sistema": "cerca_viva_mixta", "orden_rand": 79, "dist_vec_m": 14.24, "dist_30_m": null, "cumple": 1, "seed": 42, "obs": "ok" }, "geometry": { "type": "Point", "coordinates": [ -85.5922703, 10.2962963 ] } },
{ "type": "Feature", "properties": { "id": 1, "src_fid": 58, "plantar": 1, "cod_sp": "Ecyc", "especie": "Enterolobium cyclocarpum", "dist_min_m": 30.0, "grupo_dist": "30m", "sistema": "cerca_viva_mixta", "orden_rand": 69, "dist_vec_m": 16.41, "dist_30_m": 46.62, "cumple": 1, "seed": 42, "obs": "ok" }, "geometry": { "type": "Point", "coordinates": [ -85.59242, 10.2963235 ] } },
{ "type": "Feature", "properties": { "id": 1, "src_fid": 59, "plantar": 1, "cod_sp": "Pjul", "especie": "Prosopis juliflora", "dist_min_m": 5.0, "grupo_dist": "5m", "sistema": "cerca_viva_mixta", "orden_rand": 11, "dist_vec_m": 12.1, "dist_30_m": null, "cumple": 1, "seed": 42, "obs": "ok" }, "geometry": { "type": "Point", "coordinates": [ -85.5925652, 10.2963598 ] } },
{ "type": "Feature", "properties": { "id": 1, "src_fid": 60, "plantar": 1, "cod_sp": "Pjul", "especie": "Prosopis juliflora", "dist_min_m": 5.0, "grupo_dist": "5m", "sistema": "cerca_viva_mixta", "orden_rand": 81, "dist_vec_m": 12.1, "dist_30_m": null, "cumple": 1, "seed": 42, "obs": "ok" }, "geometry": { "type": "Point", "coordinates": [ -85.5926741, 10.296378 ] } },
{ "type": "Feature", "properties": { "id": 1, "src_fid": 61, "plantar": 1, "cod_sp": "Gsep", "especie": "Gliricidia sepium", "dist_min_m": 5.0, "grupo_dist": "5m", "sistema": "cerca_viva_mixta", "orden_rand": 5, "dist_vec_m": 15.48, "dist_30_m": null, "cumple": 1, "seed": 42, "obs": "ok" }, "geometry": { "type": "Point", "coordinates": [ -85.5928148, 10.2963916 ] } },
{ "type": "Feature", "properties": { "id": 1, "src_fid": 62, "plantar": 1, "cod_sp": "Gulm", "especie": "Guazuma ulmifolia", "dist_min_m": 5.0, "grupo_dist": "5m", "sistema": "cerca_viva_mixta", "orden_rand": 16, "dist_vec_m": 15.48, "dist_30_m": null, "cumple": 1, "seed": 42, "obs": "ok" }, "geometry": { "type": "Point", "coordinates": [ -85.59296, 10.2964415 ] } },
{ "type": "Feature", "properties": { "id": 1, "src_fid": 63, "plantar": 1, "cod_sp": "Ssam", "especie": "Samanea saman", "dist_min_m": 30.0, "grupo_dist": "30m", "sistema": "cerca_viva_mixta", "orden_rand": 40, "dist_vec_m": 15.12, "dist_30_m": 31.73, "cumple": 1, "seed": 42, "obs": "ok" }, "geometry": { "type": "Point", "coordinates": [ -85.5931006, 10.2964551 ] } },
{ "type": "Feature", "properties": { "id": 1, "src_fid": 64, "plantar": 1, "cod_sp": "Pjul", "especie": "Prosopis juliflora", "dist_min_m": 5.0, "grupo_dist": "5m", "sistema": "cerca_viva_mixta", "orden_rand": 51, "dist_vec_m": 15.12, "dist_30_m": null, "cumple": 1, "seed": 42, "obs": "ok" }, "geometry": { "type": "Point", "coordinates": [ -85.5932367, 10.2964778 ] } },
{ "type": "Feature", "properties": { "id": 1, "src_fid": 65, "plantar": 1, "cod_sp": "Ecyc", "especie": "Enterolobium cyclocarpum", "dist_min_m": 30.0, "grupo_dist": "30m", "sistema": "cerca_viva_mixta", "orden_rand": 96, "dist_vec_m": 16.68, "dist_30_m": 31.73, "cumple": 1, "seed": 42, "obs": "ok" }, "geometry": { "type": "Point", "coordinates": [ -85.5933819, 10.2965231 ] } },
{ "type": "Feature", "properties": { "id": 1, "src_fid": 66, "plantar": 1, "cod_sp": "Gulm", "especie": "Guazuma ulmifolia", "dist_min_m": 5.0, "grupo_dist": "5m", "sistema": "cerca_viva_mixta", "orden_rand": 111, "dist_vec_m": 19.99, "dist_30_m": null, "cumple": 1, "seed": 42, "obs": "ok" }, "geometry": { "type": "Point", "coordinates": [ -85.5935634, 10.2965413 ] } },
{ "type": "Feature", "properties": { "id": 1, "src_fid": 67, "plantar": 1, "cod_sp": "Gsep", "especie": "Gliricidia sepium", "dist_min_m": 5.0, "grupo_dist": "5m", "sistema": "cerca_viva_mixta", "orden_rand": 60, "dist_vec_m": 16.68, "dist_30_m": null, "cumple": 1, "seed": 42, "obs": "ok" }, "geometry": { "type": "Point", "coordinates": [ -85.593754, 10.2965957 ] } },
{ "type": "Feature", "properties": { "id": 1, "src_fid": 68, "plantar": 1, "cod_sp": "Gulm", "especie": "Guazuma ulmifolia", "dist_min_m": 5.0, "grupo_dist": "5m", "sistema": "cerca_viva_mixta", "orden_rand": 47, "dist_vec_m": 16.68, "dist_30_m": null, "cumple": 1, "seed": 42, "obs": "ok" }, "geometry": { "type": "Point", "coordinates": [ -85.5938992, 10.2966411 ] } },
{ "type": "Feature", "properties": { "id": 1, "src_fid": 69, "plantar": 1, "cod_sp": "Gulm", "especie": "Guazuma ulmifolia", "dist_min_m": 5.0, "grupo_dist": "5m", "sistema": "cerca_viva_mixta", "orden_rand": 94, "dist_vec_m": 25.36, "dist_30_m": null, "cumple": 1, "seed": 42, "obs": "ok" }, "geometry": { "type": "Point", "coordinates": [ -85.594126, 10.2966865 ] } },
{ "type": "Feature", "properties": { "id": 1, "src_fid": 70, "plantar": 1, "cod_sp": "Ecyc", "especie": "Enterolobium cyclocarpum", "dist_min_m": 30.0, "grupo_dist": "30m", "sistema": "cerca_viva_mixta", "orden_rand": 75, "dist_vec_m": 28.29, "dist_30_m": 37.62, "cumple": 1, "seed": 42, "obs": "ok" }, "geometry": { "type": "Point", "coordinates": [ -85.5943801, 10.2967319 ] } },
{ "type": "Feature", "properties": { "id": 1, "src_fid": 71, "plantar": 1, "cod_sp": "Ssam", "especie": "Samanea saman", "dist_min_m": 30.0, "grupo_dist": "30m", "sistema": "cerca_viva_mixta", "orden_rand": 36, "dist_vec_m": 32.37, "dist_30_m": 32.37, "cumple": 1, "seed": 42, "obs": "ok" }, "geometry": { "type": "Point", "coordinates": [ -85.5944345, 10.2963961 ] } },
{ "type": "Feature", "properties": { "id": 1, "src_fid": 72, "plantar": 1, "cod_sp": "Ssam", "especie": "Samanea saman", "dist_min_m": 30.0, "grupo_dist": "30m", "sistema": "cerca_viva_mixta", "orden_rand": 33, "dist_vec_m": 8.72, "dist_30_m": 32.37, "cumple": 1, "seed": 42, "obs": "ok" }, "geometry": { "type": "Point", "coordinates": [ -85.5944708, 10.2961057 ] } },
{ "type": "Feature", "properties": { "id": null, "src_fid": 73, "plantar": 1, "cod_sp": "Ecyc", "especie": "Enterolobium cyclocarpum", "dist_min_m": 30.0, "grupo_dist": "30m", "sistema": "cerca_viva_mixta", "orden_rand": 41, "dist_vec_m": 6.82, "dist_30_m": 34.32, "cumple": 1, "seed": 42, "obs": "ok" }, "geometry": { "type": "Point", "coordinates": [ -85.5941079, 10.2959968 ] } },
{ "type": "Feature", "properties": { "id": 1, "src_fid": 74, "plantar": 1, "cod_sp": "Ssam", "especie": "Samanea saman", "dist_min_m": 30.0, "grupo_dist": "30m", "sistema": "cerca_viva_mixta", "orden_rand": 7, "dist_vec_m": 34.32, "dist_30_m": 34.32, "cumple": 1, "seed": 42, "obs": "ok" }, "geometry": { "type": "Point", "coordinates": [ -85.5940262, 10.2962963 ] } },
{ "type": "Feature", "properties": { "id": 1, "src_fid": 75, "plantar": 1, "cod_sp": "Gulm", "especie": "Guazuma ulmifolia", "dist_min_m": 5.0, "grupo_dist": "5m", "sistema": "cerca_viva_mixta", "orden_rand": 17, "dist_vec_m": 36.16, "dist_30_m": null, "cumple": 1, "seed": 42, "obs": "ok" }, "geometry": { "type": "Point", "coordinates": [ -85.5936904, 10.2961692 ] } },
{ "type": "Feature", "properties": { "id": 1, "src_fid": 76, "plantar": 1, "cod_sp": "Gulm", "especie": "Guazuma ulmifolia", "dist_min_m": 5.0, "grupo_dist": "5m", "sistema": "cerca_viva_mixta", "orden_rand": 105, "dist_vec_m": 8.87, "dist_30_m": null, "cumple": 1, "seed": 42, "obs": "ok" }, "geometry": { "type": "Point", "coordinates": [ -85.5937993, 10.2958607 ] } },
{ "type": "Feature", "properties": { "id": 1, "src_fid": 77, "plantar": 1, "cod_sp": "Pjul", "especie": "Prosopis juliflora", "dist_min_m": 5.0, "grupo_dist": "5m", "sistema": "cerca_viva_mixta", "orden_rand": 63, "dist_vec_m": 29.03, "dist_30_m": null, "cumple": 1, "seed": 42, "obs": "ok" }, "geometry": { "type": "Point", "coordinates": [ -85.5933456, 10.2960785 ] } },
{ "type": "Feature", "properties": { "id": 1, "src_fid": 78, "plantar": 1, "cod_sp": "Pjul", "especie": "Prosopis juliflora", "dist_min_m": 5.0, "grupo_dist": "5m", "sistema": "cerca_viva_mixta", "orden_rand": 23, "dist_vec_m": 8.42, "dist_30_m": null, "cumple": 1, "seed": 42, "obs": "ok" }, "geometry": { "type": "Point", "coordinates": [ -85.5934727, 10.2957609 ] } },
{ "type": "Feature", "properties": { "id": 1, "src_fid": 79, "plantar": 1, "cod_sp": "Ecyc", "especie": "Enterolobium cyclocarpum", "dist_min_m": 30.0, "grupo_dist": "30m", "sistema": "cerca_viva_mixta", "orden_rand": 58, "dist_vec_m": 29.03, "dist_30_m": 43.14, "cumple": 1, "seed": 42, "obs": "ok" }, "geometry": { "type": "Point", "coordinates": [ -85.5931006, 10.2959787 ] } },
{ "type": "Feature", "properties": { "id": 1, "src_fid": 80, "plantar": 1, "cod_sp": "Gulm", "especie": "Guazuma ulmifolia", "dist_min_m": 5.0, "grupo_dist": "5m", "sistema": "cerca_viva_mixta", "orden_rand": 74, "dist_vec_m": 7.73, "dist_30_m": null, "cumple": 1, "seed": 42, "obs": "ok" }, "geometry": { "type": "Point", "coordinates": [ -85.5931914, 10.2956702 ] } },
{ "type": "Feature", "properties": { "id": 1, "src_fid": 81, "plantar": 1, "cod_sp": "Pjul", "especie": "Prosopis juliflora", "dist_min_m": 5.0, "grupo_dist": "5m", "sistema": "cerca_viva_mixta", "orden_rand": 114, "dist_vec_m": 6.78, "dist_30_m": null, "cumple": 1, "seed": 42, "obs": "ok" }, "geometry": { "type": "Point", "coordinates": [ -85.5929554, 10.2955976 ] } },
{ "type": "Feature", "properties": { "id": null, "src_fid": 82, "plantar": 1, "cod_sp": "Gulm", "especie": "Guazuma ulmifolia", "dist_min_m": 5.0, "grupo_dist": "5m", "sistema": "cerca_viva_mixta", "orden_rand": 52, "dist_vec_m": 29.98, "dist_30_m": null, "cumple": 1, "seed": 42, "obs": "ok" }, "geometry": { "type": "Point", "coordinates": [ -85.5928102, 10.2959242 ] } },
{ "type": "Feature", "properties": { "id": 1, "src_fid": 83, "plantar": 1, "cod_sp": "Ssam", "especie": "Samanea saman", "dist_min_m": 30.0, "grupo_dist": "30m", "sistema": "cerca_viva_mixta", "orden_rand": 102, "dist_vec_m": 29.98, "dist_30_m": 48.93, "cumple": 1, "seed": 42, "obs": "ok" }, "geometry": { "type": "Point", "coordinates": [ -85.592538, 10.295897 ] } },
{ "type": "Feature", "properties": { "id": 1, "src_fid": 85, "plantar": 1, "cod_sp": "Pjul", "especie": "Prosopis juliflora", "dist_min_m": 5.0, "grupo_dist": "5m", "sistema": "cerca_viva_mixta", "orden_rand": 38, "dist_vec_m": 31.41, "dist_30_m": null, "cumple": 1, "seed": 42, "obs": "ok" }, "geometry": { "type": "Point", "coordinates": [ -85.5922567, 10.2958426 ] } },
{ "type": "Feature", "properties": { "id": 1, "src_fid": 87, "plantar": 1, "cod_sp": "Pjul", "especie": "Prosopis juliflora", "dist_min_m": 5.0, "grupo_dist": "5m", "sistema": "cerca_viva_mixta", "orden_rand": 34, "dist_vec_m": 26.54, "dist_30_m": null, "cumple": 1, "seed": 42, "obs": "ok" }, "geometry": { "type": "Point", "coordinates": [ -85.5919482, 10.29577 ] } },
{ "type": "Feature", "properties": { "id": 1, "src_fid": 88, "plantar": 1, "cod_sp": "Ecyc", "especie": "Enterolobium cyclocarpum", "dist_min_m": 30.0, "grupo_dist": "30m", "sistema": "cerca_viva_mixta", "orden_rand": 21, "dist_vec_m": 13.42, "dist_30_m": 33.78, "cumple": 1, "seed": 42, "obs": "ok" }, "geometry": { "type": "Point", "coordinates": [ -85.5920298, 10.2954342 ] } },
{ "type": "Feature", "properties": { "id": 1, "src_fid": 89, "plantar": 1, "cod_sp": "Gsep", "especie": "Gliricidia sepium", "dist_min_m": 5.0, "grupo_dist": "5m", "sistema": "cerca_viva_mixta", "orden_rand": 112, "dist_vec_m": 26.54, "dist_30_m": null, "cumple": 1, "seed": 42, "obs": "ok" }, "geometry": { "type": "Point", "coordinates": [ -85.5917122, 10.2957155 ] } },
{ "type": "Feature", "properties": { "id": 1, "src_fid": 90, "plantar": 1, "cod_sp": "Ecyc", "especie": "Enterolobium cyclocarpum", "dist_min_m": 30.0, "grupo_dist": "30m", "sistema": "cerca_viva_mixta", "orden_rand": 4, "dist_vec_m": 14.93, "dist_30_m": 33.78, "cumple": 1, "seed": 42, "obs": "ok" }, "geometry": { "type": "Point", "coordinates": [ -85.5917304, 10.2953616 ] } },
{ "type": "Feature", "properties": { "id": 1, "src_fid": 91, "plantar": 1, "cod_sp": "Ecyc", "especie": "Enterolobium cyclocarpum", "dist_min_m": 30.0, "grupo_dist": "30m", "sistema": "cerca_viva_mixta", "orden_rand": 104, "dist_vec_m": 26.83, "dist_30_m": 35.13, "cumple": 1, "seed": 42, "obs": "ok" }, "geometry": { "type": "Point", "coordinates": [ -85.5913493, 10.2958426 ] } },
{ "type": "Feature", "properties": { "id": 1, "src_fid": 92, "plantar": 1, "cod_sp": "Pjul", "especie": "Prosopis juliflora", "dist_min_m": 5.0, "grupo_dist": "5m", "sistema": "cerca_viva_mixta", "orden_rand": 30, "dist_vec_m": 31.89, "dist_30_m": null, "cumple": 1, "seed": 42, "obs": "ok" }, "geometry": { "type": "Point", "coordinates": [ -85.5914128, 10.2955613 ] } },
{ "type": "Feature", "properties": { "id": 1, "src_fid": 101, "plantar": 1, "cod_sp": "Gsep", "especie": "Gliricidia sepium", "dist_min_m": 5.0, "grupo_dist": "5m", "sistema": "cerca_viva_mixta", "orden_rand": 24, "dist_vec_m": 22.83, "dist_30_m": null, "cumple": 1, "seed": 42, "obs": "ok" }, "geometry": { "type": "Point", "coordinates": [ -85.5915534, 10.2952527 ] } },
{ "type": "Feature", "properties": { "id": 1, "src_fid": 102, "plantar": 1, "cod_sp": "Gsep", "especie": "Gliricidia sepium", "dist_min_m": 5.0, "grupo_dist": "5m", "sistema": "cerca_viva_mixta", "orden_rand": 72, "dist_vec_m": 14.93, "dist_30_m": null, "cumple": 1, "seed": 42, "obs": "ok" }, "geometry": { "type": "Point", "coordinates": [ -85.5918529, 10.2953026 ] } },
{ "type": "Feature", "properties": { "id": 1, "src_fid": 103, "plantar": 1, "cod_sp": "Pjul", "especie": "Prosopis juliflora", "dist_min_m": 5.0, "grupo_dist": "5m", "sistema": "cerca_viva_mixta", "orden_rand": 126, "dist_vec_m": 13.42, "dist_30_m": null, "cumple": 1, "seed": 42, "obs": "ok" }, "geometry": { "type": "Point", "coordinates": [ -85.592116, 10.295348 ] } },
{ "type": "Feature", "properties": { "id": 1, "src_fid": 104, "plantar": 1, "cod_sp": "Gulm", "especie": "Guazuma ulmifolia", "dist_min_m": 5.0, "grupo_dist": "5m", "sistema": "cerca_viva_mixta", "orden_rand": 49, "dist_vec_m": 32.5, "dist_30_m": null, "cumple": 1, "seed": 42, "obs": "ok" }, "geometry": { "type": "Point", "coordinates": [ -85.5923021, 10.2945495 ] } },
{ "type": "Feature", "properties": { "id": 1, "src_fid": 105, "plantar": 1, "cod_sp": "Gsep", "especie": "Gliricidia sepium", "dist_min_m": 5.0, "grupo_dist": "5m", "sistema": "cerca_viva_mixta", "orden_rand": 99, "dist_vec_m": 30.25, "dist_30_m": null, "cumple": 1, "seed": 42, "obs": "ok" }, "geometry": { "type": "Point", "coordinates": [ -85.591989, 10.294495 ] } },
{ "type": "Feature", "properties": { "id": 1, "src_fid": 106, "plantar": 1, "cod_sp": "Gsep", "especie": "Gliricidia sepium", "dist_min_m": 5.0, "grupo_dist": "5m", "sistema": "cerca_viva_mixta", "orden_rand": 26, "dist_vec_m": 30.25, "dist_30_m": null, "cumple": 1, "seed": 42, "obs": "ok" }, "geometry": { "type": "Point", "coordinates": [ -85.5917168, 10.2944497 ] } },
{ "type": "Feature", "properties": { "id": 1, "src_fid": 107, "plantar": 1, "cod_sp": "Gsep", "especie": "Gliricidia sepium", "dist_min_m": 5.0, "grupo_dist": "5m", "sistema": "cerca_viva_mixta", "orden_rand": 14, "dist_vec_m": 34.04, "dist_30_m": null, "cumple": 1, "seed": 42, "obs": "ok" }, "geometry": { "type": "Point", "coordinates": [ -85.5914128, 10.2943861 ] } },
{ "type": "Feature", "properties": { "id": 1, "src_fid": 108, "plantar": 1, "cod_sp": "Pjul", "especie": "Prosopis juliflora", "dist_min_m": 5.0, "grupo_dist": "5m", "sistema": "cerca_viva_mixta", "orden_rand": 116, "dist_vec_m": 33.12, "dist_30_m": null, "cumple": 1, "seed": 42, "obs": "ok" }, "geometry": { "type": "Point", "coordinates": [ -85.5907912, 10.2942954 ] } },
{ "type": "Feature", "properties": { "id": 1, "src_fid": 109, "plantar": 1, "cod_sp": "Ecyc", "especie": "Enterolobium cyclocarpum", "dist_min_m": 30.0, "grupo_dist": "30m", "sistema": "cerca_viva_mixta", "orden_rand": 84, "dist_vec_m": 33.12, "dist_30_m": 67.11, "cumple": 1, "seed": 42, "obs": "ok" }, "geometry": { "type": "Point", "coordinates": [ -85.5910906, 10.2943362 ] } },
{ "type": "Feature", "properties": { "id": 1, "src_fid": 110, "plantar": 1, "cod_sp": "Ecyc", "especie": "Enterolobium cyclocarpum", "dist_min_m": 30.0, "grupo_dist": "30m", "sistema": "cerca_viva_mixta", "orden_rand": 62, "dist_vec_m": 30.87, "dist_30_m": 47.49, "cumple": 1, "seed": 42, "obs": "ok" }, "geometry": { "type": "Point", "coordinates": [ -85.5904917, 10.2942092 ] } },
{ "type": "Feature", "properties": { "id": 1, "src_fid": 111, "plantar": 1, "cod_sp": "Pjul", "especie": "Prosopis juliflora", "dist_min_m": 5.0, "grupo_dist": "5m", "sistema": "cerca_viva_mixta", "orden_rand": 98, "dist_vec_m": 30.87, "dist_30_m": null, "cumple": 1, "seed": 42, "obs": "ok" }, "geometry": { "type": "Point", "coordinates": [ -85.5902127, 10.2941706 ] } },
{ "type": "Feature", "properties": { "id": 1, "src_fid": 112, "plantar": 1, "cod_sp": "Gulm", "especie": "Guazuma ulmifolia", "dist_min_m": 5.0, "grupo_dist": "5m", "sistema": "cerca_viva_mixta", "orden_rand": 2, "dist_vec_m": 29.56, "dist_30_m": null, "cumple": 1, "seed": 42, "obs": "ok" }, "geometry": { "type": "Point", "coordinates": [ -85.5898815, 10.2941298 ] } },
{ "type": "Feature", "properties": { "id": 1, "src_fid": 113, "plantar": 1, "cod_sp": "Ssam", "especie": "Samanea saman", "dist_min_m": 30.0, "grupo_dist": "30m", "sistema": "cerca_viva_mixta", "orden_rand": 100, "dist_vec_m": 29.56, "dist_30_m": 43.23, "cumple": 1, "seed": 42, "obs": "ok" }, "geometry": { "type": "Point", "coordinates": [ -85.5896183, 10.2940708 ] } },
{ "type": "Feature", "properties": { "id": 1, "src_fid": 114, "plantar": 1, "cod_sp": "Ecyc", "especie": "Enterolobium cyclocarpum", "dist_min_m": 30.0, "grupo_dist": "30m", "sistema": "cerca_viva_mixta", "orden_rand": 66, "dist_vec_m": 30.64, "dist_30_m": 43.23, "cumple": 1, "seed": 42, "obs": "ok" }, "geometry": { "type": "Point", "coordinates": [ -85.5895548, 10.2944565 ] } },
{ "type": "Feature", "properties": { "id": 1, "src_fid": 115, "plantar": 1, "cod_sp": "Pjul", "especie": "Prosopis juliflora", "dist_min_m": 5.0, "grupo_dist": "5m", "sistema": "cerca_viva_mixta", "orden_rand": 35, "dist_vec_m": 30.64, "dist_30_m": null, "cumple": 1, "seed": 42, "obs": "ok" }, "geometry": { "type": "Point", "coordinates": [ -85.589827, 10.29452 ] } },
{ "type": "Feature", "properties": { "id": 1, "src_fid": 116, "plantar": 1, "cod_sp": "Gulm", "especie": "Guazuma ulmifolia", "dist_min_m": 5.0, "grupo_dist": "5m", "sistema": "cerca_viva_mixta", "orden_rand": 123, "dist_vec_m": 31.73, "dist_30_m": null, "cumple": 1, "seed": 42, "obs": "ok" }, "geometry": { "type": "Point", "coordinates": [ -85.5901446, 10.2945654 ] } },
{ "type": "Feature", "properties": { "id": 1, "src_fid": 117, "plantar": 1, "cod_sp": "Ecyc", "especie": "Enterolobium cyclocarpum", "dist_min_m": 30.0, "grupo_dist": "30m", "sistema": "cerca_viva_mixta", "orden_rand": 54, "dist_vec_m": 31.73, "dist_30_m": 47.49, "cumple": 1, "seed": 42, "obs": "ok" }, "geometry": { "type": "Point", "coordinates": [ -85.5904259, 10.2946334 ] } },
{ "type": "Feature", "properties": { "id": 1, "src_fid": 118, "plantar": 1, "cod_sp": "Gsep", "especie": "Gliricidia sepium", "dist_min_m": 5.0, "grupo_dist": "5m", "sistema": "cerca_viva_mixta", "orden_rand": 64, "dist_vec_m": 34.04, "dist_30_m": null, "cumple": 1, "seed": 42, "obs": "ok" }, "geometry": { "type": "Point", "coordinates": [ -85.590739, 10.2946879 ] } },
{ "type": "Feature", "properties": { "id": 1, "src_fid": 119, "plantar": 1, "cod_sp": "Pjul", "especie": "Prosopis juliflora", "dist_min_m": 5.0, "grupo_dist": "5m", "sistema": "cerca_viva_mixta", "orden_rand": 32, "dist_vec_m": 34.04, "dist_30_m": null, "cumple": 1, "seed": 42, "obs": "ok" }, "geometry": { "type": "Point", "coordinates": [ -85.591043, 10.2947514 ] } },
{ "type": "Feature", "properties": { "id": 1, "src_fid": 120, "plantar": 1, "cod_sp": "Gulm", "especie": "Guazuma ulmifolia", "dist_min_m": 5.0, "grupo_dist": "5m", "sistema": "cerca_viva_mixta", "orden_rand": 45, "dist_vec_m": 32.38, "dist_30_m": null, "cumple": 1, "seed": 42, "obs": "ok" }, "geometry": { "type": "Point", "coordinates": [ -85.5913561, 10.2948149 ] } },
{ "type": "Feature", "properties": { "id": 1, "src_fid": 121, "plantar": 1, "cod_sp": "Ssam", "especie": "Samanea saman", "dist_min_m": 30.0, "grupo_dist": "30m", "sistema": "cerca_viva_mixta", "orden_rand": 87, "dist_vec_m": 30.59, "dist_30_m": 55.24, "cumple": 1, "seed": 42, "obs": "ok" }, "geometry": { "type": "Point", "coordinates": [ -85.5916464, 10.2948693 ] } },
{ "type": "Feature", "properties": { "id": 1, "src_fid": 122, "plantar": 1, "cod_sp": "Gulm", "especie": "Guazuma ulmifolia", "dist_min_m": 5.0, "grupo_dist": "5m", "sistema": "cerca_viva_mixta", "orden_rand": 3, "dist_vec_m": 30.59, "dist_30_m": null, "cumple": 1, "seed": 42, "obs": "ok" }, "geometry": { "type": "Point", "coordinates": [ -85.5919232, 10.2949056 ] } },
{ "type": "Feature", "properties": { "id": 1, "src_fid": 123, "plantar": 1, "cod_sp": "Pjul", "especie": "Prosopis juliflora", "dist_min_m": 5.0, "grupo_dist": "5m", "sistema": "cerca_viva_mixta", "orden_rand": 8, "dist_vec_m": 31.73, "dist_30_m": null, "cumple": 1, "seed": 42, "obs": "ok" }, "geometry": { "type": "Point", "coordinates": [ -85.5922045, 10.2949737 ] } },
{ "type": "Feature", "properties": { "id": null, "src_fid": 126, "plantar": 1, "cod_sp": "Gulm", "especie": "Guazuma ulmifolia", "dist_min_m": 5.0, "grupo_dist": "5m", "sistema": "cerca_viva_mixta", "orden_rand": 9, "dist_vec_m": 6.78, "dist_30_m": null, "cumple": 1, "seed": 42, "obs": "ok" }, "geometry": { "type": "Point", "coordinates": [ -85.5929577, 10.2955363 ] } },
{ "type": "Feature", "properties": { "id": null, "src_fid": 127, "plantar": 1, "cod_sp": "Ecyc", "especie": "Enterolobium cyclocarpum", "dist_min_m": 30.0, "grupo_dist": "30m", "sistema": "cerca_viva_mixta", "orden_rand": 46, "dist_vec_m": 7.73, "dist_30_m": 43.14, "cumple": 1, "seed": 42, "obs": "ok" }, "geometry": { "type": "Point", "coordinates": [ -85.5932254, 10.2956089 ] } },
{ "type": "Feature", "properties": { "id": null, "src_fid": 128, "plantar": 1, "cod_sp": "Gsep", "especie": "Gliricidia sepium", "dist_min_m": 5.0, "grupo_dist": "5m", "sistema": "cerca_viva_mixta", "orden_rand": 56, "dist_vec_m": 8.42, "dist_30_m": null, "cumple": 1, "seed": 42, "obs": "ok" }, "geometry": { "type": "Point", "coordinates": [ -85.5935112, 10.2956951 ] } },
{ "type": "Feature", "properties": { "id": null, "src_fid": 129, "plantar": 1, "cod_sp": "Ssam", "especie": "Samanea saman", "dist_min_m": 30.0, "grupo_dist": "30m", "sistema": "cerca_viva_mixta", "orden_rand": 65, "dist_vec_m": 8.87, "dist_30_m": 40.36, "cumple": 1, "seed": 42, "obs": "ok" }, "geometry": { "type": "Point", "coordinates": [ -85.5938107, 10.2957813 ] } },
{ "type": "Feature", "properties": { "id": null, "src_fid": 130, "plantar": 1, "cod_sp": "Gulm", "especie": "Guazuma ulmifolia", "dist_min_m": 5.0, "grupo_dist": "5m", "sistema": "cerca_viva_mixta", "orden_rand": 85, "dist_vec_m": 6.82, "dist_30_m": null, "cumple": 1, "seed": 42, "obs": "ok" }, "geometry": { "type": "Point", "coordinates": [ -85.5941011, 10.2959356 ] } },
{ "type": "Feature", "properties": { "id": null, "src_fid": 131, "plantar": 1, "cod_sp": "Pjul", "especie": "Prosopis juliflora", "dist_min_m": 5.0, "grupo_dist": "5m", "sistema": "cerca_viva_mixta", "orden_rand": 82, "dist_vec_m": 19.68, "dist_30_m": null, "cumple": 1, "seed": 42, "obs": "ok" }, "geometry": { "type": "Point", "coordinates": [ -85.5942871, 10.2959855 ] } },
{ "type": "Feature", "properties": { "id": null, "src_fid": 132, "plantar": 1, "cod_sp": "Gsep", "especie": "Gliricidia sepium", "dist_min_m": 5.0, "grupo_dist": "5m", "sistema": "cerca_viva_mixta", "orden_rand": 103, "dist_vec_m": 8.72, "dist_30_m": null, "cumple": 1, "seed": 42, "obs": "ok" }, "geometry": { "type": "Point", "coordinates": [ -85.5944958, 10.2960309 ] } },
{ "type": "Feature", "properties": { "id": null, "src_fid": 133, "plantar": 1, "cod_sp": "Ecyc", "especie": "Enterolobium cyclocarpum", "dist_min_m": 30.0, "grupo_dist": "30m", "sistema": "cerca_viva_mixta", "orden_rand": 43, "dist_vec_m": 29.39, "dist_30_m": 47.59, "cumple": 1, "seed": 42, "obs": "ok" }, "geometry": { "type": "Point", "coordinates": [ -85.5946002, 10.2956951 ] } },
{ "type": "Feature", "properties": { "id": null, "src_fid": 134, "plantar": 1, "cod_sp": "Pjul", "especie": "Prosopis juliflora", "dist_min_m": 5.0, "grupo_dist": "5m", "sistema": "cerca_viva_mixta", "orden_rand": 89, "dist_vec_m": 29.39, "dist_30_m": null, "cumple": 1, "seed": 42, "obs": "ok" }, "geometry": { "type": "Point", "coordinates": [ -85.5946365, 10.295432 ] } },
{ "type": "Feature", "properties": { "id": null, "src_fid": 136, "plantar": 1, "cod_sp": "Pjul", "especie": "Prosopis juliflora", "dist_min_m": 5.0, "grupo_dist": "5m", "sistema": "cerca_viva_mixta", "orden_rand": 93, "dist_vec_m": 21.47, "dist_30_m": null, "cumple": 1, "seed": 42, "obs": "ok" }, "geometry": { "type": "Point", "coordinates": [ -85.5945412, 10.2949646 ] } },
{ "type": "Feature", "properties": { "id": null, "src_fid": 137, "plantar": 1, "cod_sp": "Gulm", "especie": "Guazuma ulmifolia", "dist_min_m": 5.0, "grupo_dist": "5m", "sistema": "cerca_viva_mixta", "orden_rand": 108, "dist_vec_m": 21.47, "dist_30_m": null, "cumple": 1, "seed": 42, "obs": "ok" }, "geometry": { "type": "Point", "coordinates": [ -85.5943506, 10.2949193 ] } },
{ "type": "Feature", "properties": { "id": null, "src_fid": 138, "plantar": 1, "cod_sp": "Gsep", "especie": "Gliricidia sepium", "dist_min_m": 5.0, "grupo_dist": "5m", "sistema": "cerca_viva_mixta", "orden_rand": 97, "dist_vec_m": 30.81, "dist_30_m": null, "cumple": 1, "seed": 42, "obs": "ok" }, "geometry": { "type": "Point", "coordinates": [ -85.5942508, 10.2953231 ] } },
{ "type": "Feature", "properties": { "id": null, "src_fid": 139, "plantar": 1, "cod_sp": "Pjul", "especie": "Prosopis juliflora", "dist_min_m": 5.0, "grupo_dist": "5m", "sistema": "cerca_viva_mixta", "orden_rand": 19, "dist_vec_m": 30.81, "dist_30_m": null, "cumple": 1, "seed": 42, "obs": "ok" }, "geometry": { "type": "Point", "coordinates": [ -85.5941918, 10.2955953 ] } },
{ "type": "Feature", "properties": { "id": null, "src_fid": 140, "plantar": 1, "cod_sp": "Ssam", "especie": "Samanea saman", "dist_min_m": 30.0, "grupo_dist": "30m", "sistema": "cerca_viva_mixta", "orden_rand": 29, "dist_vec_m": 35.26, "dist_30_m": 46.37, "cumple": 1, "seed": 42, "obs": "ok" }, "geometry": { "type": "Point", "coordinates": [ -85.5939241, 10.2953775 ] } },
{ "type": "Feature", "properties": { "id": null, "src_fid": 141, "plantar": 1, "cod_sp": "Gulm", "especie": "Guazuma ulmifolia", "dist_min_m": 5.0, "grupo_dist": "5m", "sistema": "cerca_viva_mixta", "orden_rand": 83, "dist_vec_m": 33.55, "dist_30_m": null, "cumple": 1, "seed": 42, "obs": "ok" }, "geometry": { "type": "Point", "coordinates": [ -85.5940466, 10.294883 ] } },
{ "type": "Feature", "properties": { "id": null, "src_fid": 142, "plantar": 1, "cod_sp": "Pjul", "especie": "Prosopis juliflora", "dist_min_m": 5.0, "grupo_dist": "5m", "sistema": "cerca_viva_mixta", "orden_rand": 115, "dist_vec_m": 29.36, "dist_30_m": null, "cumple": 1, "seed": 42, "obs": "ok" }, "geometry": { "type": "Point", "coordinates": [ -85.5937426, 10.2948104 ] } },
{ "type": "Feature", "properties": { "id": null, "src_fid": 143, "plantar": 1, "cod_sp": "Pjul", "especie": "Prosopis juliflora", "dist_min_m": 5.0, "grupo_dist": "5m", "sistema": "cerca_viva_mixta", "orden_rand": 57, "dist_vec_m": 31.99, "dist_30_m": null, "cumple": 1, "seed": 42, "obs": "ok" }, "geometry": { "type": "Point", "coordinates": [ -85.5936156, 10.2952868 ] } },
{ "type": "Feature", "properties": { "id": null, "src_fid": 144, "plantar": 1, "cod_sp": "Pjul", "especie": "Prosopis juliflora", "dist_min_m": 5.0, "grupo_dist": "5m", "sistema": "cerca_viva_mixta", "orden_rand": 95, "dist_vec_m": 28.66, "dist_30_m": null, "cumple": 1, "seed": 42, "obs": "ok" }, "geometry": { "type": "Point", "coordinates": [ -85.5933297, 10.2952278 ] } },
{ "type": "Feature", "properties": { "id": null, "src_fid": 145, "plantar": 1, "cod_sp": "Gsep", "especie": "Gliricidia sepium", "dist_min_m": 5.0, "grupo_dist": "5m", "sistema": "cerca_viva_mixta", "orden_rand": 18, "dist_vec_m": 28.2, "dist_30_m": null, "cumple": 1, "seed": 42, "obs": "ok" }, "geometry": { "type": "Point", "coordinates": [ -85.5934795, 10.2947605 ] } },
{ "type": "Feature", "properties": { "id": null, "src_fid": 146, "plantar": 1, "cod_sp": "Gulm", "especie": "Guazuma ulmifolia", "dist_min_m": 5.0, "grupo_dist": "5m", "sistema": "cerca_viva_mixta", "orden_rand": 92, "dist_vec_m": 28.66, "dist_30_m": null, "cumple": 1, "seed": 42, "obs": "ok" }, "geometry": { "type": "Point", "coordinates": [ -85.5930847, 10.295137 ] } },
{ "type": "Feature", "properties": { "id": null, "src_fid": 147, "plantar": 1, "cod_sp": "Gsep", "especie": "Gliricidia sepium", "dist_min_m": 5.0, "grupo_dist": "5m", "sistema": "cerca_viva_mixta", "orden_rand": 118, "dist_vec_m": 28.2, "dist_30_m": null, "cumple": 1, "seed": 42, "obs": "ok" }, "geometry": { "type": "Point", "coordinates": [ -85.5932254, 10.2947196 ] } },
{ "type": "Feature", "properties": { "id": null, "src_fid": 148, "plantar": 1, "cod_sp": "Pjul", "especie": "Prosopis juliflora", "dist_min_m": 5.0, "grupo_dist": "5m", "sistema": "cerca_viva_mixta", "orden_rand": 109, "dist_vec_m": 35.09, "dist_30_m": null, "cumple": 1, "seed": 42, "obs": "ok" }, "geometry": { "type": "Point", "coordinates": [ -85.5927807, 10.2950372 ] } },
{ "type": "Feature", "properties": { "id": null, "src_fid": 149, "plantar": 1, "cod_sp": "Gulm", "especie": "Guazuma ulmifolia", "dist_min_m": 5.0, "grupo_dist": "5m", "sistema": "cerca_viva_mixta", "orden_rand": 61, "dist_vec_m": 32.7, "dist_30_m": null, "cumple": 1, "seed": 42, "obs": "ok" }, "geometry": { "type": "Point", "coordinates": [ -85.5928896, 10.2946425 ] } },
{ "type": "Feature", "properties": { "id": null, "src_fid": 150, "plantar": 1, "cod_sp": "Gulm", "especie": "Guazuma ulmifolia", "dist_min_m": 5.0, "grupo_dist": "5m", "sistema": "cerca_viva_mixta", "orden_rand": 10, "dist_vec_m": 32.5, "dist_30_m": null, "cumple": 1, "seed": 42, "obs": "ok" }, "geometry": { "type": "Point", "coordinates": [ -85.5925947, 10.2945971 ] } }
]
}
